{
"type": "FeatureCollection",
"name": "buildings",
"crs": { "type": "name", "properties": { "name": "urn:ogc:def:crs:EPSG::27700" } },
"features": [
{ "type": "Feature", "properties": { "uuid": "920aa41f-bbce-48b2-8921-648116a0876b" }, "geometry": { "type": "Polygon", "coordinates": [ [ [ 286637.620207982196007, 78800.0 ], [ 286637.990416633663699, 78800.353571998712141 ], [ 286638.345369095855858, 78800.0 ], [ 286637.620207982196007, 78800.0 ] ] ] } },
{ "type": "Feature", "properties": { "uuid": "7901b861-af5c-4c63-aaa4-4dcf8b841123" }, "geometry": { "type": "Polygon", "coordinates": [ [ [ 286644.833996396919247, 78800.0 ], [ 286640.374746633751784, 78805.226330820238218 ], [ 286646.951544039766304, 78810.766000662755687 ], [ 286656.178665415907744, 78800.0 ], [ 286644.833996396919247, 78800.0 ] ] ] } },
{ "type": "Feature", "properties": { "uuid": "26421d7c-c759-4a03-92dc-9dc88fed1b52" }, "geometry": { "type": "Polygon", "coordinates": [ [ [ 286393.620325419818982, 79231.772286019840976 ], [ 286385.086173902673181, 79241.047647554602008 ], [ 286390.12785353930667, 79245.862277221080149 ], [ 286399.033413118915632, 79236.200116773485206 ], [ 286393.620325419818982, 79231.772286019840976 ] ] ] } },
{ "type": "Feature", "properties": { "uuid": "d65faff3-3acf-4011-a622-162d318846e0" }, "geometry": { "type": "Polygon", "coordinates": [ [ [ 286414.741411505034193, 79207.452224656997714 ], [ 286405.464363806822803, 79217.501224724692293 ], [ 286413.278234163764864, 79227.558521396131255 ], [ 286424.510791025299113, 79220.118532132910332 ], [ 286417.835781073139515, 79210.036521781730698 ], [ 286414.741411505034193, 79207.452224656997714 ] ] ] } },
{ "type": "Feature", "properties": { "uuid": "eabaa413-a75b-4fed-ae43-0a516a35708c" }, "geometry": { "type": "Polygon", "coordinates": [ [ [ 286432.659442698117346, 79193.049520385306096 ], [ 286423.316695431654807, 79200.069802050566068 ], [ 286432.706450704485178, 79212.744369543768698 ], [ 286442.049186745483894, 79205.724121088249376 ], [ 286432.659442698117346, 79193.049520385306096 ] ] ] } },
{ "type": "Feature", "properties": { "uuid": "3ef0382c-b8ce-4def-8a9a-96705db79c68" }, "geometry": { "type": "Polygon", "coordinates": [ [ [ 286442.193446543533355, 78984.516758365643909 ], [ 286435.499526482541114, 78991.101098580227699 ], [ 286444.056515017582569, 79000.385223514575046 ], [ 286451.130065044155344, 78993.792680695827585 ], [ 286442.193446543533355, 78984.516758365643909 ] ] ] } },
{ "type": "Feature", "properties": { "uuid": "3c58752b-eed6-46e9-8f47-6b3aad1e3023" }, "geometry": { "type": "Polygon", "coordinates": [ [ [ 286464.856576622405555, 78978.722800467192428 ], [ 286452.896982379897963, 78987.693890155496774 ], [ 286456.03247000859119, 78992.171341711247806 ], [ 286468.371691511711106, 78983.192042805545498 ], [ 286464.856576622405555, 78978.722800467192428 ] ] ] } },
{ "type": "Feature", "properties": { "uuid": "5f1f275f-e49b-4f2f-a38a-56bfb392027d" }, "geometry": { "type": "Polygon", "coordinates": [ [ [ 286462.15579394553788, 78994.311373792763334 ], [ 286456.95578114251839, 78999.726966921909479 ], [ 286460.066652009147219, 79003.068600795668317 ], [ 286465.654497796611395, 78998.023393744515488 ], [ 286462.15579394553788, 78994.311373792763334 ] ] ] } },
{ "type": "Feature", "properties": { "uuid": "0e76a112-0a14-4de0-9fbd-310bb54a0910" }, "geometry": { "type": "Polygon", "coordinates": [ [ [ 286483.73403645522194, 78955.965670427365694 ], [ 286472.888656635885127, 78963.77626438596053 ], [ 286475.636305635794997, 78967.883365587011212 ], [ 286486.48168062971672, 78960.07278322277125 ], [ 286483.73403645522194, 78955.965670427365694 ] ] ] } },
{ "type": "Feature", "properties": { "uuid": "300bb3d8-e3cb-466e-89d8-e822c8cb469d" }, "geometry": { "type": "Polygon", "coordinates": [ [ [ 286489.748353853414301, 78970.607969469274394 ], [ 286483.756221353367437, 78974.52558224304812 ], [ 286488.855454345350154, 78981.990789312490961 ], [ 286494.839382119127549, 78977.694582742959028 ], [ 286489.748353853414301, 78970.607969469274394 ] ] ] } },
{ "type": "Feature", "properties": { "uuid": "f5b69901-f3c7-4eac-b7e4-a2def14f72ad" }, "geometry": { "type": "Polygon", "coordinates": [ [ [ 286490.547085553524084, 79042.558970119629521 ], [ 286487.196032442734577, 79045.661773266270757 ], [ 286491.858168236212805, 79050.484904774464667 ], [ 286495.20922081178287, 79047.382107430341421 ], [ 286490.547085553524084, 79042.558970119629521 ] ] ] } },
{ "type": "Feature", "properties": { "uuid": "3c328bed-1ed8-4568-abab-58bad33b4ab4" }, "geometry": { "type": "Polygon", "coordinates": [ [ [ 286498.954686299723107, 78939.727065084851347 ], [ 286493.746381101140287, 78944.764067086187424 ], [ 286499.192464737046976, 78950.706677451409632 ], [ 286504.400768861407414, 78945.669686499226373 ], [ 286498.954686299723107, 78939.727065084851347 ] ] ] } },
{ "type": "Feature", "properties": { "uuid": "2f738132-b514-49df-86e0-653e8a10549f" }, "geometry": { "type": "Polygon", "coordinates": [ [ [ 286515.428556604136247, 79104.139336911641294 ], [ 286510.179411915421952, 79107.283192961622262 ], [ 286512.151316405565012, 79110.649448872689391 ], [ 286517.392260657506995, 79107.127001051965635 ], [ 286515.428556604136247, 79104.139336911641294 ] ] ] } },
{ "type": "Feature", "properties": { "uuid": "cb1b29be-3bce-4134-81e6-9dbf24088c87" }, "geometry": { "type": "Polygon", "coordinates": [ [ [ 286521.320405565435067, 78937.7276119494054 ], [ 286506.066887836903334, 78952.451728917629225 ], [ 286509.565586395270657, 78956.16380745996139 ], [ 286524.819102402601857, 78941.439710975682829 ], [ 286521.320405565435067, 78937.7276119494054 ] ] ] } },
{ "type": "Feature", "properties": { "uuid": "920aa41f-bbce-48b2-8921-648116a0876b" }, "geometry": { "type": "Polygon", "coordinates": [ [ [ 286637.620207982196007, 78800.0 ], [ 286637.990416633663699, 78800.353571998712141 ], [ 286638.345369095855858, 78800.0 ], [ 286637.620207982196007, 78800.0 ] ] ] } },
{ "type": "Feature", "properties": { "uuid": "7901b861-af5c-4c63-aaa4-4dcf8b841123" }, "geometry": { "type": "Polygon", "coordinates": [ [ [ 286644.833996396919247, 78800.0 ], [ 286640.374746633751784, 78805.226330820238218 ], [ 286646.951544039766304, 78810.766000662755687 ], [ 286656.178665415907744, 78800.0 ], [ 286644.833996396919247, 78800.0 ] ] ] } },
{ "type": "Feature", "properties": { "uuid": "e8f66fa3-b84e-4d7c-a6d6-803f1420f36f" }, "geometry": { "type": "Polygon", "coordinates": [ [ [ 286719.402851641818415, 78800.0 ], [ 286721.222841893497389, 78802.720745636586798 ], [ 286725.204513933858834, 78800.0 ], [ 286719.402851641818415, 78800.0 ] ] ] } },
{ "type": "Feature", "properties": { "uuid": "ef179e22-3f06-4236-8e0c-a0326144f7c4" }, "geometry": { "type": "Polygon", "coordinates": [ [ [ 286777.279620294691995, 79006.433085328288144 ], [ 286764.874511719332077, 79012.382784577581333 ], [ 286776.027637518302072, 79036.383616378501756 ], [ 286788.440878539695404, 79030.812569833447924 ], [ 286777.279620294691995, 79006.433085328288144 ] ] ] } },
{ "type": "Feature", "properties": { "uuid": "2df387d3-11ad-4d90-8cdc-5fc4fee3c2cf" }, "geometry": { "type": "Polygon", "coordinates": [ [ [ 286792.184666740242392, 79045.882778280210914 ], [ 286784.294271624472458, 79049.840989531134255 ], [ 286793.442789285792969, 79068.960914145223796 ], [ 286801.333161539922003, 79065.002730195381446 ], [ 286792.184666740242392, 79045.882778280210914 ] ] ] } },
{ "type": "Feature", "properties": { "uuid": "39553def-4838-4a3b-a7c2-31a31a0f4986" }, "geometry": { "type": "Polygon", "coordinates": [ [ [ 286795.553547807503492, 79078.763455025939038 ], [ 286791.790007130824961, 79080.35984792484669 ], [ 286795.386551084811799, 79088.615179131331388 ], [ 286799.529711529379711, 79087.010591191676212 ], [ 286795.553547807503492, 79078.763455025939038 ] ] ] } },
{ "type": "Feature", "properties": { "uuid": "0d86c6e0-2798-4628-93f2-8579944e8f5e" }, "geometry": { "type": "Polygon", "coordinates": [ [ [ 286811.913639109116048, 79062.501556381728733 ], [ 286805.113070640247315, 79064.163536974432645 ], [ 286817.785567338927649, 79123.357189164933516 ], [ 286824.577885912614875, 79121.316646678460529 ], [ 286811.913639109116048, 79062.501556381728733 ] ] ] } },
{ "type": "Feature", "properties": { "uuid": "71d39594-ea0c-4acb-bd0d-27fbc2fa334c" }, "geometry": { "type": "Polygon", "coordinates": [ [ [ 286850.0, 78854.07750601292355 ], [ 286847.560293463699054, 78848.855911767168436 ], [ 286843.796570961130783, 78850.452330398780759 ], [ 286848.185154593666084, 78860.206119611684699 ], [ 286850.0, 78859.251699228057987 ], [ 286850.0, 78854.07750601292355 ] ] ] } },
{ "type": "Feature", "properties": { "uuid": "4410a8fe-61dd-4bd9-944b-13f8e6d4d74b" }, "geometry": { "type": "Polygon", "coordinates": [ [ [ 286850.0, 78907.202214466684381 ], [ 286846.97811768844258, 78909.853374517726479 ], [ 286850.0, 78913.315133083000546 ], [ 286850.0, 78907.202214466684381 ] ] ] } },
{ "type": "Feature", "properties": { "uuid": "159b0e1f-254b-4036-ba2e-289ecfe00d7f" }, "geometry": { "type": "Polygon", "coordinates": [ [ [ 286825.192207636369858, 79184.936508659156971 ], [ 286818.795942467753775, 79187.726009281526785 ], [ 286821.996406563092023, 79195.232207255176036 ], [ 286816.424802143825218, 79201.034019028185867 ], [ 286816.637394297576975, 79210.877314148237929 ], [ 286796.268991227261722, 79217.377493498817785 ], [ 286797.497795404051431, 79221.517353314120555 ], [ 286819.772437442210503, 79215.35477758932393 ], [ 286820.891427265945822, 79231.996208368538646 ], [ 286829.234765338129364, 79231.437260875740321 ], [ 286828.593526664830279, 79219.330679100967245 ], [ 286830.943701536976732, 79187.463666944036959 ], [ 286825.192207636369858, 79184.936508659156971 ] ] ] } },
{ "type": "Feature", "properties": { "uuid": "88e8aecb-1955-44ee-b249-d6f203f65ec9" }, "geometry": { "type": "Polygon", "coordinates": [ [ [ 286829.101841115392745, 79300.0 ], [ 286826.097362791537307, 79279.607697043364169 ], [ 286814.741745889827143, 79281.36798727203859 ], [ 286817.554037874564528, 79300.0 ], [ 286829.101841115392745, 79300.0 ] ] ] } },
{ "type": "Feature", "properties": { "uuid": "ec2792a9-f88e-4631-a9bf-40f1b50e1709" }, "geometry": { "type": "Polygon", "coordinates": [ [ [ 286821.288566513336264, 79267.969992227532202 ], [ 286806.920565350388642, 79270.931642676732736 ], [ 286807.769738877483178, 79275.079661737254355 ], [ 286822.12955270963721, 79271.739432016562205 ], [ 286821.288566513336264, 79267.969992227532202 ] ] ] } },
{ "type": "Feature", "properties": { "uuid": "f74c6bdc-8a0a-4d60-bfdc-767f0ea3e073" }, "geometry": { "type": "Polygon", "coordinates": [ [ [ 286819.569204819679726, 79241.115068473067367 ], [ 286806.348148011253215, 79244.430722696677549 ], [ 286808.838436264020856, 79254.22474002893432 ], [ 286822.059469526284374, 79250.909097396826837 ], [ 286819.569204819679726, 79241.115068473067367 ] ] ] } },
{ "type": "Feature", "properties": { "uuid": "5300805a-c3df-4503-9cb3-9925959995a7" }, "geometry": { "type": "Polygon", "coordinates": [ [ [ 286830.427304523298517, 79251.485907779744593 ], [ 286821.704385526187252, 79252.053050881135277 ], [ 286823.194801011006348, 79268.307583664194681 ], [ 286831.909517428837717, 79267.36185998423025 ], [ 286830.427304523298517, 79251.485907779744593 ] ] ] } },
{ "type": "Feature", "properties": { "uuid": "3c6ea3bc-6e66-4343-83ad-1166a516fb87" }, "geometry": { "type": "Polygon", "coordinates": [ [ [ 286840.280888548004441, 79250.515602575062076 ], [ 286836.113321905431803, 79250.984357913373969 ], [ 286836.721841096936259, 79261.576530416699825 ], [ 286841.277186360559426, 79261.478163372608833 ], [ 286840.280888548004441, 79250.515602575062076 ] ] ] } },
{ "type": "Feature", "properties": { "uuid": "8c5f6d9d-fbfc-4ccd-8f12-1d5e7e9bfa41" }, "geometry": { "type": "Polygon", "coordinates": [ [ [ 286850.0, 79300.0 ], [ 286850.0, 79289.056383116068901 ], [ 286843.4250926412642, 79290.59628290971159 ], [ 286845.523079779231921, 79300.0 ], [ 286850.0, 79300.0 ] ] ] } },
{ "type": "Feature", "properties": { "uuid": "2a71a639-950b-4b8c-a6b5-6f90607f5090" }, "geometry": { "type": "Polygon", "coordinates": [ [ [ 286847.309112122631632, 79224.229231632547453 ], [ 286841.235275412967894, 79224.360380956117297 ], [ 286841.398772531189024, 79231.932114055001875 ], [ 286847.092986222589388, 79231.809161415614653 ], [ 286847.309112122631632, 79224.229231632547453 ] ] ] } },
{ "type": "Feature", "properties": { "uuid": "8875542d-cd74-45c8-b706-3f1db016ea20" }, "geometry": { "type": "Polygon", "coordinates": [ [ [ 286850.0, 79190.688037713844096 ], [ 286843.916092794155702, 79190.213674916012678 ], [ 286842.316896358737722, 79221.685680763126584 ], [ 286850.0, 79222.03011452993087 ], [ 286850.0, 79190.688037713844096 ] ] ] } },
{ "type": "Feature", "properties": { "uuid": "10ff14d7-a55f-44b9-b733-5142a28c0c13" }, "geometry": { "type": "Polygon", "coordinates": [ [ [ 286709.501506803673692, 79300.0 ], [ 286714.398625280125998, 79295.277749329630751 ], [ 286708.185731619712897, 79288.973156415857375 ], [ 286696.75058334460482, 79300.0 ], [ 286709.501506803673692, 79300.0 ] ] ] } },
{ "type": "Feature", "properties": { "uuid": "b89333ae-9aa7-47a0-b332-f6e79066e7c7" }, "geometry": { "type": "Polygon", "coordinates": [ [ [ 286741.429798319702968, 79300.0 ], [ 286743.232606198871508, 79293.896985342842527 ], [ 286734.832093588891439, 79291.805992114939727 ], [ 286732.876882976503111, 79300.0 ], [ 286741.429798319702968, 79300.0 ] ] ] } },
{ "type": "Feature", "properties": { "uuid": "2b3fe6c9-2991-4bf2-b4bc-93c2e5ac0f94" }, "geometry": { "type": "Polygon", "coordinates": [ [ [ 286725.798283090349287, 79277.987150630680844 ], [ 286711.908175894990563, 79285.483847319206689 ], [ 286716.255754498241004, 79293.343807950179325 ], [ 286730.145846279338002, 79285.847133400297025 ], [ 286725.798283090349287, 79277.987150630680844 ] ] ] } },
{ "type": "Feature", "properties": { "uuid": "8af6126f-765d-4940-ae2b-71ccc082a381" }, "geometry": { "type": "Polygon", "coordinates": [ [ [ 286746.370915082632564, 79280.951343434659066 ], [ 286744.273252702143509, 79289.329386394965695 ], [ 286750.387923250440508, 79291.09103519160999 ], [ 286752.477413170039654, 79282.334414955112152 ], [ 286746.370915082632564, 79280.951343434659066 ] ] ] } },
{ "type": "Feature", "properties": { "uuid": "39b071cb-ef40-43df-a412-3ccb9db3f9da" }, "geometry": { "type": "Polygon", "coordinates": [ [ [ 286768.051425446406938, 79229.728791476460174 ], [ 286748.103671712451614, 79238.11386764672352 ], [ 286764.130817997094709, 79276.779955739970319 ], [ 286782.523912467062473, 79284.336500699981116 ], [ 286790.050693896366283, 79281.143816533818608 ], [ 286768.051425446406938, 79229.728791476460174 ] ] ] } },
{ "type": "Feature", "properties": { "uuid": "69b39c4d-23c8-4be2-9f8a-901ded5fb62a" }, "geometry": { "type": "Polygon", "coordinates": [ [ [ 286740.243097549071535, 79261.00947108771652 ], [ 286724.116171794186812, 79270.448303322744323 ], [ 286727.679972041689325, 79277.188957202830352 ], [ 286744.186494414345361, 79267.741943319822894 ], [ 286740.243097549071535, 79261.00947108771652 ] ] ] } },
{ "type": "Feature", "properties": { "uuid": "5dde6e93-7b83-4535-a4fa-56f6d9a14743" }, "geometry": { "type": "Polygon", "coordinates": [ [ [ 286711.029323680966627, 79262.398460106225684 ], [ 286705.837523389665876, 79268.192115913727321 ], [ 286709.327689135505352, 79271.52550915806205 ], [ 286714.899101655988488, 79265.723654227884253 ], [ 286711.029323680966627, 79262.398460106225684 ] ] ] } },
{ "type": "Feature", "properties": { "uuid": "f0bc2697-7113-4133-a9aa-a56ad716ddd9" }, "geometry": { "type": "Polygon", "coordinates": [ [ [ 286804.07046775193885, 79244.479920781945111 ], [ 286785.1879463638179, 79249.432967495755292 ], [ 286787.25776615855284, 79257.342245089617791 ], [ 286806.148437928815838, 79252.767797224223614 ], [ 286804.07046775193885, 79244.479920781945111 ] ] ] } }
]
}
