{
"type": "FeatureCollection",
"name": "rivers",
"crs": { "type": "name", "properties": { "name": "urn:ogc:def:crs:EPSG::27700" } },
"features": [
{ "type": "Feature", "properties": { "name1": "Kate Brook", "identifier": "54CD7EC6-7C05-4A49-B203-9D13CBC52113", "startNode": "64129DD0-4101-4C11-B79B-16D8BCA50FB6", "endNode": "3D062F9D-12B7-4DF7-85B6-6F54DABF2D60", "form": "inlandRiver", "flow": "in direction", "fictitious": "false", "length": 1935, "name2": null }, "geometry": { "type": "LineString", "coordinates": [ [ 287100.0, 79159.738665626238799, 0.0 ], [ 287076.100000000034925, 79144.80000000000291, 0.0 ], [ 287036.94, 79085.669999999998254, 0.0 ], [ 286992.100000000034925, 79056.630000000004657, 0.0 ], [ 286955.450000000011642, 79065.770000000004075, 0.0 ], [ 286956.770000000018626, 78992.220000000001164, 0.0 ], [ 286927.830000000016298, 78992.540000000008149, 0.0 ], [ 286884.669999999983702, 78964.029999999998836, 0.0 ], [ 286853.87, 78975.529999999998836, 0.0 ], [ 286842.460000000020955, 78968.36, 0.0 ], [ 286835.840000000025611, 78921.680000000007567, 0.0 ], [ 286806.26, 78892.040000000008149, 0.0 ], [ 286791.299999999988358, 78854.009999999994761, 0.0 ], [ 286743.580000000016298, 78826.759999999994761, 0.0 ], [ 286735.720000000030268, 78789.61, 0.0 ], [ 286714.13, 78777.309999999997672, 0.0 ], [ 286683.919999999983702, 78703.160000000003492, 0.0 ], [ 286580.68, 78594.580000000001746, 0.0 ], [ 286547.039999999979045, 78608.589999999996508, 0.0 ], [ 286482.49, 78610.86, 0.0 ], [ 286447.200000000011642, 78562.619999999995343, 0.0 ], [ 286355.539999999979045, 78553.570000000006985, 0.0 ], [ 286352.452181818138342, 78550.0, 0.0 ] ] } },
{ "type": "Feature", "properties": { "name1": "Kate Brook", "identifier": "0B064B42-3CD5-439B-8A13-37161B8F82DC", "startNode": "F52C468F-9B59-4BEE-8CD3-6414094AE9F5", "endNode": "64129DD0-4101-4C11-B79B-16D8BCA50FB6", "form": "inlandRiver", "flow": "in direction", "fictitious": "false", "length": 35, "name2": null }, "geometry": { "type": "LineString", "coordinates": [ [ 287086.720000000030268, 79338.630000000004657, 0.0 ], [ 287100.0, 79321.387318224777118, 0.0 ] ] } },
{ "type": "Feature", "properties": { "name1": "Kate Brook", "identifier": "B2843291-5A90-49FC-8305-AFECA65E0FE5", "startNode": "939B9D5F-F996-4696-A02C-A6C6D3998492", "endNode": "501EB00F-2162-4E19-8B9E-9748F543B81B", "form": "inlandRiver", "flow": "in direction", "fictitious": "false", "length": 510, "name2": null }, "geometry": { "type": "LineString", "coordinates": [ [ 287100.0, 79412.912964234099491, 0.0 ], [ 287097.07, 79408.600000000005821, 0.0 ] ] } }
]
}
