{
"type": "FeatureCollection",
"name": "roads",
"crs": { "type": "name", "properties": { "name": "urn:ogc:def:crs:EPSG::27700" } },
"features": [
{ "type": "Feature", "properties": { "fictitious": "false", "identifier": "CFC72091-6394-4778-95E3-8D2D87BBE23C", "class": "Unknown", "roadNumber": null, "name1": null, "name1_lang": null, "name2": null, "name2_lang": null, "formOfWay": "Single Carriageway", "length": 109, "primary": "false", "trunkRoad": "false", "loop": "false", "startNode": "C23EDF69-78CD-430D-826A-751E08C6EFB7", "endNode": "E481597B-096D-47EA-9D64-F682D286FC04", "structure": null, "nameTOID": null, "numberTOID": null, "function": "Restricted Local Access Road" }, "geometry": { "type": "LineString", "coordinates": [ [ 286355.89000000001397, 78833.740000000005239, 0.0 ], [ 286358.669999999983702, 78831.36, 0.0 ], [ 286375.06, 78817.270000000004075, 0.0 ], [ 286385.979999999981374, 78807.89, 0.0 ], [ 286394.24, 78800.80000000000291, 0.0 ], [ 286412.64000000001397, 78800.160000000003492, 0.0 ], [ 286417.366666666639503, 78800.0, 0.0 ] ] } },
{ "type": "Feature", "properties": { "fictitious": "false", "identifier": "606DED21-AB5E-4F38-BAAC-0E0242458CE5", "class": "Unclassified", "roadNumber": null, "name1": "Horseshoe Close", "name1_lang": null, "name2": null, "name2_lang": null, "formOfWay": "Single Carriageway", "length": 70, "primary": "false", "trunkRoad": "false", "loop": "false", "startNode": "16A962D0-9DC3-4387-8132-DD3E62955172", "endNode": "3DDC48FE-B80F-4980-9CC2-3AC0F1922009", "structure": null, "nameTOID": "osgb4000000025363549", "numberTOID": null, "function": "Local Road" }, "geometry": { "type": "LineString", "coordinates": [ [ 286632.0, 79071.0, 0.0 ], [ 286662.99, 79069.5, 0.0 ], [ 286693.970000000030268, 79068.0, 0.0 ], [ 286697.99, 79068.0, 0.0 ], [ 286702.0, 79068.0, 0.0 ] ] } },
{ "type": "Feature", "properties": { "fictitious": "false", "identifier": "EFACEA89-D9C2-4E1A-8E0A-38C57789ABD5", "class": "Unclassified", "roadNumber": null, "name1": "Palace Meadow", "name1_lang": null, "name2": null, "name2_lang": null, "formOfWay": "Single Carriageway", "length": 12, "primary": "false", "trunkRoad": "false", "loop": "false", "startNode": "9EE90C19-81AE-4B92-ABAB-78992BAC1CC6", "endNode": "16A962D0-9DC3-4387-8132-DD3E62955172", "structure": null, "nameTOID": "osgb4000000025356947", "numberTOID": null, "function": "Local Road" }, "geometry": { "type": "LineString", "coordinates": [ [ 286635.0, 79059.0, 0.0 ], [ 286633.5, 79065.0, 0.0 ], [ 286632.0, 79071.0, 0.0 ] ] } },
{ "type": "Feature", "properties": { "fictitious": "false", "identifier": "0C1A11D1-B9B9-4187-B3CF-E80A3330F5D2", "class": "Unclassified", "roadNumber": null, "name1": "Palace Meadow", "name1_lang": null, "name2": null, "name2_lang": null, "formOfWay": "Single Carriageway", "length": 66, "primary": "false", "trunkRoad": "false", "loop": "false", "startNode": "B3DD5459-E89F-42AF-97ED-D74EDCD1DEE2", "endNode": "E76701D5-1EF8-4273-A332-0968734D4DBC", "structure": null, "nameTOID": "osgb4000000025356947", "numberTOID": null, "function": "Local Road" }, "geometry": { "type": "LineString", "coordinates": [ [ 286634.57, 79141.020000000004075, 0.0 ], [ 286654.28000000002794, 79147.009999999994761, 0.0 ], [ 286674.0, 79153.0, 0.0 ], [ 286680.340000000025611, 79163.900000000008731, 0.0 ], [ 286686.669999999983702, 79174.790000000008149, 0.0 ] ] } },
{ "type": "Feature", "properties": { "fictitious": "false", "identifier": "681E06F4-9432-4528-838A-1912F2EE6EEF", "class": "Unclassified", "roadNumber": null, "name1": "Lawn Gardens", "name1_lang": null, "name2": null, "name2_lang": null, "formOfWay": "Single Carriageway", "length": 101, "primary": "false", "trunkRoad": "false", "loop": "false", "startNode": "A50202AC-E42B-4569-99EF-835FBC1AB91C", "endNode": "396D767C-AE8C-455E-8891-711C7EC9D2E5", "structure": null, "nameTOID": "osgb4000000025363551", "numberTOID": null, "function": "Local Road" }, "geometry": { "type": "LineString", "coordinates": [ [ 286692.95213114755461, 79300.0, 0.0 ], [ 286688.0, 79292.0, 0.0 ], [ 286680.0, 79289.180000000007567, 0.0 ], [ 286672.0, 79286.36, 0.0 ], [ 286661.5, 79273.680000000007567, 0.0 ], [ 286651.0, 79261.0, 0.0 ] ] } },
{ "type": "Feature", "properties": { "fictitious": "false", "identifier": "75C97769-A947-4083-BDDB-22BE79EFF0ED", "class": "Unclassified", "roadNumber": null, "name1": "Lawn Drive", "name1_lang": null, "name2": null, "name2_lang": null, "formOfWay": "Single Carriageway", "length": 69, "primary": "false", "trunkRoad": "false", "loop": "false", "startNode": "396D767C-AE8C-455E-8891-711C7EC9D2E5", "endNode": "AED057C0-E2D7-4E6F-807F-CF5D25334BF8", "structure": null, "nameTOID": "osgb4000000025355093", "numberTOID": null, "function": "Minor Road" }, "geometry": { "type": "LineString", "coordinates": [ [ 286651.0, 79261.0, 0.0 ], [ 286670.169999999983702, 79247.210000000006403, 0.0 ], [ 286689.350000000034925, 79233.419999999998254, 0.0 ], [ 286698.669999999983702, 79228.210000000006403, 0.0 ], [ 286708.0, 79223.0, 0.0 ] ] } },
{ "type": "Feature", "properties": { "fictitious": "false", "identifier": "1DACB586-9A83-4101-AF8B-2F0DBA6C2446", "class": "Unclassified", "roadNumber": null, "name1": "Palace Meadow", "name1_lang": null, "name2": null, "name2_lang": null, "formOfWay": "Single Carriageway", "length": 53, "primary": "false", "trunkRoad": "false", "loop": "false", "startNode": "E76701D5-1EF8-4273-A332-0968734D4DBC", "endNode": "AED057C0-E2D7-4E6F-807F-CF5D25334BF8", "structure": null, "nameTOID": "osgb4000000025356947", "numberTOID": null, "function": "Local Road" }, "geometry": { "type": "LineString", "coordinates": [ [ 286686.669999999983702, 79174.790000000008149, 0.0 ], [ 286688.840000000025611, 79181.400000000008731, 0.0 ], [ 286691.0, 79188.0, 0.0 ], [ 286699.5, 79205.5, 0.0 ], [ 286708.0, 79223.0, 0.0 ] ] } },
{ "type": "Feature", "properties": { "fictitious": "false", "identifier": "98BCC2AA-3F77-4BB3-AA80-91694AF93661", "class": "Unclassified", "roadNumber": null, "name1": "Palace Meadow", "name1_lang": null, "name2": null, "name2_lang": null, "formOfWay": "Single Carriageway", "length": 59, "primary": "false", "trunkRoad": "false", "loop": "false", "startNode": "E76701D5-1EF8-4273-A332-0968734D4DBC", "endNode": "CE24727E-1DBB-41BC-AFD4-584004CD0154", "structure": null, "nameTOID": "osgb4000000025356947", "numberTOID": null, "function": "Local Road" }, "geometry": { "type": "LineString", "coordinates": [ [ 286686.669999999983702, 79174.790000000008149, 0.0 ], [ 286709.669999999983702, 79165.11, 0.0 ], [ 286732.669999999983702, 79155.419999999998254, 0.0 ], [ 286736.5, 79153.029999999998836, 0.0 ], [ 286740.32, 79150.64, 0.0 ] ] } },
{ "type": "Feature", "properties": { "fictitious": "false", "identifier": "21B3EA82-8987-493F-B07E-3A0F06FB7144", "class": "Unclassified", "roadNumber": null, "name1": "Lawn Drive", "name1_lang": null, "name2": null, "name2_lang": null, "formOfWay": "Single Carriageway", "length": 118, "primary": "false", "trunkRoad": "false", "loop": "false", "startNode": "AED057C0-E2D7-4E6F-807F-CF5D25334BF8", "endNode": "8B23EE97-F826-487D-BAC2-3C0F73513319", "structure": null, "nameTOID": "osgb4000000025355093", "numberTOID": null, "function": "Minor Road" }, "geometry": { "type": "LineString", "coordinates": [ [ 286708.0, 79223.0, 0.0 ], [ 286734.5, 79206.5, 0.0 ], [ 286761.0, 79190.0, 0.0 ], [ 286774.01, 79175.600000000005821, 0.0 ], [ 286787.020000000018626, 79161.190000000002328, 0.0 ], [ 286793.01, 79155.600000000005821, 0.0 ], [ 286799.0, 79150.0, 0.0 ] ] } },
{ "type": "Feature", "properties": { "fictitious": "false", "identifier": "0249977D-2D02-4A55-9544-519093781967", "class": "Unclassified", "roadNumber": null, "name1": "Troarn Way", "name1_lang": null, "name2": null, "name2_lang": null, "formOfWay": "Single Carriageway", "length": 45, "primary": "false", "trunkRoad": "false", "loop": "false", "startNode": "F9F9F410-D983-49B1-97A7-C757B4EE1D80", "endNode": "558E18F5-96D1-4F6D-9B1B-4089BC23C9C4", "structure": null, "nameTOID": "osgb4000000025360193", "numberTOID": null, "function": "Local Road" }, "geometry": { "type": "LineString", "coordinates": [ [ 286783.080000000016298, 79110.630000000004657, 0.0 ], [ 286789.539999999979045, 79109.309999999997672, 0.0 ], [ 286796.0, 79108.0, 0.0 ], [ 286811.0, 79102.5, 0.0 ], [ 286826.0, 79097.0, 0.0 ] ] } },
{ "type": "Feature", "properties": { "fictitious": "false", "identifier": "B475D850-B6C4-4623-BE5D-1FADDA0274DC", "class": "Unclassified", "roadNumber": null, "name1": "Lawn Drive", "name1_lang": null, "name2": null, "name2_lang": null, "formOfWay": "Single Carriageway", "length": 45, "primary": "false", "trunkRoad": "false", "loop": "false", "startNode": "8B23EE97-F826-487D-BAC2-3C0F73513319", "endNode": "2B1A1BDE-9F29-4DF3-81F9-FB767A79C2D3", "structure": null, "nameTOID": "osgb4000000025355093", "numberTOID": null, "function": "Minor Road" }, "geometry": { "type": "LineString", "coordinates": [ [ 286799.0, 79150.0, 0.0 ], [ 286817.5, 79137.0, 0.0 ], [ 286836.0, 79124.0, 0.0 ] ] } },
{ "type": "Feature", "properties": { "fictitious": "false", "identifier": "0D51C912-FD2C-427C-BF9C-8E461A4D4A06", "class": "Unclassified", "roadNumber": null, "name1": "St Marys Close", "name1_lang": null, "name2": null, "name2_lang": null, "formOfWay": "Single Carriageway", "length": 38, "primary": "false", "trunkRoad": "false", "loop": "false", "startNode": "8B23EE97-F826-487D-BAC2-3C0F73513319", "endNode": "12FE8923-D8C4-4830-B42C-48B10E186975", "structure": null, "nameTOID": "osgb4000000025365568", "numberTOID": null, "function": "Local Road" }, "geometry": { "type": "LineString", "coordinates": [ [ 286799.0, 79150.0, 0.0 ], [ 286812.049999999988358, 79163.960000000006403, 0.0 ], [ 286825.100000000034925, 79177.919999999998254, 0.0 ] ] } },
{ "type": "Feature", "properties": { "fictitious": "false", "identifier": "E1333706-1F49-4AE1-9701-55ECCE5D5624", "class": "Unclassified", "roadNumber": null, "name1": "Troarn Way", "name1_lang": null, "name2": null, "name2_lang": null, "formOfWay": "Single Carriageway", "length": 69, "primary": "false", "trunkRoad": "false", "loop": "false", "startNode": "558E18F5-96D1-4F6D-9B1B-4089BC23C9C4", "endNode": "7C75D023-4CDB-4994-A8F8-AD8344E02872", "structure": null, "nameTOID": "osgb4000000025360193", "numberTOID": null, "function": "Local Road" }, "geometry": { "type": "LineString", "coordinates": [ [ 286826.0, 79097.0, 0.0 ], [ 286815.5, 79064.0, 0.0 ], [ 286805.0, 79031.0, 0.0 ] ] } },
{ "type": "Feature", "properties": { "fictitious": "false", "identifier": "3C944C97-F989-4293-BE79-7799932C20B0", "class": "Unclassified", "roadNumber": null, "name1": "St Marys Close", "name1_lang": null, "name2": null, "name2_lang": null, "formOfWay": "Single Carriageway", "length": 39, "primary": "false", "trunkRoad": "false", "loop": "false", "startNode": "12FE8923-D8C4-4830-B42C-48B10E186975", "endNode": "00A96702-65E0-4229-AED7-766387066E70", "structure": null, "nameTOID": "osgb4000000025365568", "numberTOID": null, "function": "Local Road" }, "geometry": { "type": "LineString", "coordinates": [ [ 286825.100000000034925, 79177.919999999998254, 0.0 ], [ 286826.0, 79193.0, 0.0 ], [ 286823.020000000018626, 79196.350000000005821, 0.0 ], [ 286810.0, 79211.0, 0.0 ] ] } },
{ "type": "Feature", "properties": { "fictitious": "false", "identifier": "C5DE7542-0D52-499F-89C6-061A3C23C3FC", "class": "Unclassified", "roadNumber": null, "name1": "St Marys Close", "name1_lang": null, "name2": null, "name2_lang": null, "formOfWay": "Single Carriageway", "length": 38, "primary": "false", "trunkRoad": "false", "loop": "false", "startNode": "3622CB59-44F0-4DDE-9170-30B24D29E158", "endNode": "12FE8923-D8C4-4830-B42C-48B10E186975", "structure": null, "nameTOID": "osgb4000000025365568", "numberTOID": null, "function": "Local Road" }, "geometry": { "type": "LineString", "coordinates": [ [ 286850.0, 79171.514498141259537, 0.0 ], [ 286838.549999999988358, 79174.460000000006403, 0.0 ], [ 286825.100000000034925, 79177.919999999998254, 0.0 ] ] } },
{ "type": "Feature", "properties": { "fictitious": "false", "identifier": "4D1D7AD8-8EDB-4DA2-9F5C-7849D506BF8D", "class": "Unclassified", "roadNumber": null, "name1": "Troarn Way", "name1_lang": null, "name2": null, "name2_lang": null, "formOfWay": "Single Carriageway", "length": 29, "primary": "false", "trunkRoad": "false", "loop": "false", "startNode": "2B1A1BDE-9F29-4DF3-81F9-FB767A79C2D3", "endNode": "558E18F5-96D1-4F6D-9B1B-4089BC23C9C4", "structure": null, "nameTOID": "osgb4000000025360193", "numberTOID": null, "function": "Local Road" }, "geometry": { "type": "LineString", "coordinates": [ [ 286836.0, 79124.0, 0.0 ], [ 286831.0, 79110.5, 0.0 ], [ 286826.0, 79097.0, 0.0 ] ] } },
{ "type": "Feature", "properties": { "fictitious": "false", "identifier": "7C7665AB-D146-42E0-A0E5-7706D1B28AA0", "class": "Unclassified", "roadNumber": null, "name1": "Lawn Drive", "name1_lang": null, "name2": null, "name2_lang": null, "formOfWay": "Single Carriageway", "length": 36, "primary": "false", "trunkRoad": "false", "loop": "false", "startNode": "2B1A1BDE-9F29-4DF3-81F9-FB767A79C2D3", "endNode": "35CF1911-4653-4A77-9038-7C31FAD2C4F6", "structure": null, "nameTOID": "osgb4000000025355093", "numberTOID": null, "function": "Minor Road" }, "geometry": { "type": "LineString", "coordinates": [ [ 286836.0, 79124.0, 0.0 ], [ 286850.0, 79120.0, 0.0 ] ] } },
{ "type": "Feature", "properties": { "fictitious": "false", "identifier": "CA00B4C2-EB19-418F-B13D-F61DBD32D4DC", "class": "Unknown", "roadNumber": null, "name1": null, "name1_lang": null, "name2": null, "name2_lang": null, "formOfWay": "Single Carriageway", "length": 52, "primary": "false", "trunkRoad": "false", "loop": "false", "startNode": "88BD98F1-1CC0-42E8-9555-3927F3740AC5", "endNode": "C23EDF69-78CD-430D-826A-751E08C6EFB7", "structure": null, "nameTOID": null, "numberTOID": null, "function": "Restricted Local Access Road" }, "geometry": { "type": "LineString", "coordinates": [ [ 286350.0, 78829.54668685120123, 0.0 ], [ 286355.89000000001397, 78833.740000000005239, 0.0 ] ] } },
{ "type": "Feature", "properties": { "fictitious": "false", "identifier": "C32BE268-D34B-4535-A456-FA3352656930", "class": "Unknown", "roadNumber": null, "name1": "Rock Road", "name1_lang": null, "name2": null, "name2_lang": null, "formOfWay": "Single Carriageway", "length": 64, "primary": "false", "trunkRoad": "false", "loop": "false", "startNode": "4EA855DE-6765-45DB-B078-7685C4E0C794", "endNode": "31847F0C-890B-4FB5-90DE-83A688378847", "structure": null, "nameTOID": "osgb4000000025356946", "numberTOID": null, "function": "Local Road" }, "geometry": { "type": "LineString", "coordinates": [ [ 286701.210000000020955, 78871.229999999995925, 0.0 ], [ 286724.0, 78859.0, 0.0 ], [ 286727.68, 78853.80000000000291, 0.0 ], [ 286744.63, 78829.86, 0.0 ], [ 286746.31, 78827.490000000005239, 0.0 ] ] } },
{ "type": "Feature", "properties": { "fictitious": "false", "identifier": "D9CEC8AC-312B-4407-A308-E7838A625B81", "class": "Unknown", "roadNumber": null, "name1": null, "name1_lang": null, "name2": null, "name2_lang": null, "formOfWay": "Single Carriageway", "length": 37, "primary": "false", "trunkRoad": "false", "loop": "false", "startNode": "E106DF8D-350C-4A22-B6A9-6258CEA151B2", "endNode": "C23EDF69-78CD-430D-826A-751E08C6EFB7", "structure": null, "nameTOID": null, "numberTOID": null, "function": "Restricted Local Access Road" }, "geometry": { "type": "LineString", "coordinates": [ [ 286351.19, 78870.470000000001164, 0.0 ], [ 286353.539999999979045, 78852.11, 0.0 ], [ 286355.89000000001397, 78833.740000000005239, 0.0 ] ] } },
{ "type": "Feature", "properties": { "fictitious": "false", "identifier": "11BDD849-4846-454F-B930-B49D2A7B9D40", "class": "B Road", "roadNumber": "B3344", "name1": null, "name1_lang": null, "name2": null, "name2_lang": null, "formOfWay": "Single Carriageway", "length": 47, "primary": "false", "trunkRoad": "false", "loop": "false", "startNode": "88BD98F1-1CC0-42E8-9555-3927F3740AC5", "endNode": "E106DF8D-350C-4A22-B6A9-6258CEA151B2", "structure": null, "nameTOID": null, "numberTOID": "osgb4000000025366224", "function": "B Road" }, "geometry": { "type": "LineString", "coordinates": [ [ 286350.0, 78869.209698461534572, 0.0 ], [ 286351.19, 78870.470000000001164, 0.0 ] ] } },
{ "type": "Feature", "properties": { "fictitious": "false", "identifier": "BDCC2823-C85A-46CC-B4AA-6CB31A493FBC", "class": "B Road", "roadNumber": "B3344", "name1": null, "name1_lang": null, "name2": null, "name2_lang": null, "formOfWay": "Single Carriageway", "length": 22, "primary": "false", "trunkRoad": "false", "loop": "false", "startNode": "E106DF8D-350C-4A22-B6A9-6258CEA151B2", "endNode": "68F8E6DE-DDAA-4203-B0FA-83A28017CDEF", "structure": null, "nameTOID": null, "numberTOID": "osgb4000000025366224", "function": "B Road" }, "geometry": { "type": "LineString", "coordinates": [ [ 286351.19, 78870.470000000001164, 0.0 ], [ 286358.44, 78878.690000000002328, 0.0 ], [ 286365.69, 78886.919999999998254, 0.0 ] ] } },
{ "type": "Feature", "properties": { "fictitious": "false", "identifier": "B17FF85C-3E9A-4D56-9857-80AE8966A312", "class": "Unclassified", "roadNumber": null, "name1": "Parkway Road", "name1_lang": null, "name2": null, "name2_lang": null, "formOfWay": "Single Carriageway", "length": 244, "primary": "false", "trunkRoad": "false", "loop": "false", "startNode": "FA45A371-4E30-40F6-BBF3-07D9F2F93A4C", "endNode": "4EA855DE-6765-45DB-B078-7685C4E0C794", "structure": null, "nameTOID": "osgb4000000025355092", "numberTOID": null, "function": "Minor Road" }, "geometry": { "type": "LineString", "coordinates": [ [ 286850.0, 79009.623277661812608, 0.0 ], [ 286847.24, 78999.05000000000291, 0.0 ], [ 286826.0, 78980.0, 0.0 ], [ 286817.080000000016298, 78935.759999999994761, 0.0 ], [ 286807.88, 78930.64, 0.0 ], [ 286796.289999999979045, 78924.180000000007567, 0.0 ], [ 286788.03000000002794, 78919.580000000001746, 0.0 ], [ 286784.69, 78917.720000000001164, 0.0 ], [ 286701.210000000020955, 78871.229999999995925, 0.0 ] ] } },
{ "type": "Feature", "properties": { "fictitious": "false", "identifier": "6D7E8D1E-8B4F-4E4F-BFB0-317D8C6AADE8", "class": "Unknown", "roadNumber": null, "name1": "Rock Road", "name1_lang": null, "name2": null, "name2_lang": null, "formOfWay": "Single Carriageway", "length": 257, "primary": "false", "trunkRoad": "false", "loop": "false", "startNode": "1ECDACE1-A78C-47B5-A977-92153D41E023", "endNode": "4EA855DE-6765-45DB-B078-7685C4E0C794", "structure": null, "nameTOID": "osgb4000000025356946", "numberTOID": null, "function": "Minor Road" }, "geometry": { "type": "LineString", "coordinates": [ [ 286517.0, 79039.0, 0.0 ], [ 286556.44, 78982.380000000004657, 0.0 ], [ 286576.0, 78978.0, 0.0 ], [ 286591.330000000016298, 78962.380000000004657, 0.0 ], [ 286669.039999999979045, 78883.220000000001164, 0.0 ], [ 286677.020000000018626, 78878.61, 0.0 ], [ 286685.0, 78874.0, 0.0 ], [ 286693.100000000034925, 78872.61, 0.0 ], [ 286701.210000000020955, 78871.229999999995925, 0.0 ] ] } },
{ "type": "Feature", "properties": { "fictitious": "false", "identifier": "490B8083-10BB-4197-9328-6E6BBE62DA44", "class": "Unknown", "roadNumber": null, "name1": null, "name1_lang": null, "name2": null, "name2_lang": null, "formOfWay": "Single Carriageway", "length": 79, "primary": "false", "trunkRoad": "false", "loop": "false", "startNode": "68F8E6DE-DDAA-4203-B0FA-83A28017CDEF", "endNode": "F2840BA4-2A97-4026-AE40-4A1E76B7FC6B", "structure": null, "nameTOID": null, "numberTOID": null, "function": "Restricted Local Access Road" }, "geometry": { "type": "LineString", "coordinates": [ [ 286365.69, 78886.919999999998254, 0.0 ], [ 286359.450000000011642, 78897.380000000004657, 0.0 ], [ 286364.76, 78905.89, 0.0 ], [ 286369.919999999983702, 78914.169999999998254, 0.0 ], [ 286374.020000000018626, 78920.740000000005239, 0.0 ], [ 286380.07, 78930.440000000002328, 0.0 ], [ 286359.56, 78949.919999999998254, 0.0 ] ] } },
{ "type": "Feature", "properties": { "fictitious": "false", "identifier": "EA17ADBE-7907-4378-A1FC-CCC80C7A10FA", "class": "B Road", "roadNumber": "B3344", "name1": null, "name1_lang": null, "name2": null, "name2_lang": null, "formOfWay": "Single Carriageway", "length": 132, "primary": "false", "trunkRoad": "false", "loop": "false", "startNode": "68F8E6DE-DDAA-4203-B0FA-83A28017CDEF", "endNode": "6E2DF8D1-FC02-4656-A679-ED403AACE70D", "structure": null, "nameTOID": null, "numberTOID": "osgb4000000025366224", "function": "B Road" }, "geometry": { "type": "LineString", "coordinates": [ [ 286365.69, 78886.919999999998254, 0.0 ], [ 286400.0, 78943.029999999998836, 0.0 ], [ 286401.090000000025611, 78944.809999999997672, 0.0 ], [ 286427.03000000002794, 79002.960000000006403, 0.0 ] ] } },
{ "type": "Feature", "properties": { "fictitious": "false", "identifier": "87BB90BD-CF3E-443A-B8B0-1EDD0C941E74", "class": "Unclassified", "roadNumber": null, "name1": "Palace Meadow", "name1_lang": null, "name2": null, "name2_lang": null, "formOfWay": "Single Carriageway", "length": 128, "primary": "false", "trunkRoad": "false", "loop": "false", "startNode": "2FBE32D5-CBBB-49C1-9E59-CCE4DC36D291", "endNode": "AC52DEAF-DCC6-4C98-8FDB-480DA0E39C67", "structure": null, "nameTOID": "osgb4000000025356947", "numberTOID": null, "function": "Local Road" }, "geometry": { "type": "LineString", "coordinates": [ [ 286645.0, 78978.0, 0.0 ], [ 286672.330000000016298, 78978.979999999995925, 0.0 ], [ 286699.650000000023283, 78979.960000000006403, 0.0 ], [ 286709.69, 78977.119999999995343, 0.0 ], [ 286719.720000000030268, 78974.279999999998836, 0.0 ], [ 286723.299999999988358, 78957.169999999998254, 0.0 ], [ 286726.87, 78940.059999999997672, 0.0 ], [ 286728.93, 78935.029999999998836, 0.0 ], [ 286731.0, 78930.0, 0.0 ], [ 286733.5, 78927.5, 0.0 ], [ 286736.0, 78925.0, 0.0 ] ] } },
{ "type": "Feature", "properties": { "fictitious": "false", "identifier": "53C0F6F4-2D5B-4883-82D0-EF9E8B4D29B4", "class": "Unclassified", "roadNumber": null, "name1": "Palace Meadow", "name1_lang": null, "name2": null, "name2_lang": null, "formOfWay": "Single Carriageway", "length": 36, "primary": "false", "trunkRoad": "false", "loop": "false", "startNode": "2FBE32D5-CBBB-49C1-9E59-CCE4DC36D291", "endNode": "D9A5E3FD-1625-4F9F-BB0F-550BCA39A90B", "structure": null, "nameTOID": "osgb4000000025356947", "numberTOID": null, "function": "Local Road" }, "geometry": { "type": "LineString", "coordinates": [ [ 286645.0, 78978.0, 0.0 ], [ 286645.94, 78966.759999999994761, 0.0 ], [ 286646.87, 78955.520000000004075, 0.0 ], [ 286647.229999999981374, 78951.30000000000291, 0.0 ], [ 286647.580000000016298, 78947.080000000001746, 0.0 ], [ 286647.789999999979045, 78944.540000000008149, 0.0 ], [ 286648.0, 78942.0, 0.0 ] ] } },
{ "type": "Feature", "properties": { "fictitious": "false", "identifier": "E6F636F4-165C-4FB7-B3D9-0F81EB398770", "class": "Unclassified", "roadNumber": null, "name1": "Troarn Way", "name1_lang": null, "name2": null, "name2_lang": null, "formOfWay": "Single Carriageway", "length": 88, "primary": "false", "trunkRoad": "false", "loop": "false", "startNode": "7C75D023-4CDB-4994-A8F8-AD8344E02872", "endNode": "A835D1FA-7658-495C-AF2E-22D67C3F26C1", "structure": null, "nameTOID": "osgb4000000025360193", "numberTOID": null, "function": "Local Road" }, "geometry": { "type": "LineString", "coordinates": [ [ 286805.0, 79031.0, 0.0 ], [ 286808.89000000001397, 79010.559999999997672, 0.0 ], [ 286800.26, 78996.309999999997672, 0.0 ], [ 286780.840000000025611, 78964.270000000004075, 0.0 ], [ 286777.919999999983702, 78958.64, 0.0 ], [ 286775.0, 78953.0, 0.0 ] ] } },
{ "type": "Feature", "properties": { "fictitious": "false", "identifier": "3D484708-3E22-4D52-9318-D60DFD728D4A", "class": "Unclassified", "roadNumber": null, "name1": "Palace Meadow", "name1_lang": null, "name2": null, "name2_lang": null, "formOfWay": "Single Carriageway", "length": 18, "primary": "false", "trunkRoad": "false", "loop": "false", "startNode": "9CCB5312-2763-4BDC-91D7-16C33A8FDD4E", "endNode": "2FBE32D5-CBBB-49C1-9E59-CCE4DC36D291", "structure": null, "nameTOID": "osgb4000000025356947", "numberTOID": null, "function": "Local Road" }, "geometry": { "type": "LineString", "coordinates": [ [ 286641.200000000011642, 78995.940000000002328, 0.0 ], [ 286643.100000000034925, 78986.970000000001164, 0.0 ], [ 286645.0, 78978.0, 0.0 ] ] } },
{ "type": "Feature", "properties": { "fictitious": "false", "identifier": "D6DCA92C-2024-49AC-8C84-2F54A5DEE907", "class": "Unknown", "roadNumber": null, "name1": "Rock Road", "name1_lang": null, "name2": null, "name2_lang": null, "formOfWay": "Single Carriageway", "length": 65, "primary": "false", "trunkRoad": "false", "loop": "false", "startNode": "CBEBFEFB-8E6F-4BDE-A424-F44743B494F0", "endNode": "1ECDACE1-A78C-47B5-A977-92153D41E023", "structure": null, "nameTOID": "osgb4000000025356946", "numberTOID": null, "function": "Local Road" }, "geometry": { "type": "LineString", "coordinates": [ [ 286475.0, 78990.0, 0.0 ], [ 286496.0, 79014.5, 0.0 ], [ 286517.0, 79039.0, 0.0 ] ] } },
{ "type": "Feature", "properties": { "fictitious": "false", "identifier": "14F58CAE-8911-48DA-BDE2-4081ADD5038C", "class": "Unclassified", "roadNumber": null, "name1": "Palace Meadow", "name1_lang": null, "name2": null, "name2_lang": null, "formOfWay": "Single Carriageway", "length": 37, "primary": "false", "trunkRoad": "false", "loop": "false", "startNode": "9CCB5312-2763-4BDC-91D7-16C33A8FDD4E", "endNode": "477000AB-5855-4380-B9F0-2282CD53C735", "structure": null, "nameTOID": "osgb4000000025356947", "numberTOID": null, "function": "Local Road" }, "geometry": { "type": "LineString", "coordinates": [ [ 286641.200000000011642, 78995.940000000002328, 0.0 ], [ 286626.410000000032596, 78994.779999999998836, 0.0 ], [ 286611.60999999998603, 78993.61, 0.0 ], [ 286607.87, 78993.61, 0.0 ], [ 286604.13, 78993.61, 0.0 ] ] } },
{ "type": "Feature", "properties": { "fictitious": "false", "identifier": "6BD56340-2A78-4232-B3EE-932A072C8990", "class": "Unclassified", "roadNumber": null, "name1": "Palace Meadow", "name1_lang": null, "name2": null, "name2_lang": null, "formOfWay": "Single Carriageway", "length": 63, "primary": "false", "trunkRoad": "false", "loop": "false", "startNode": "9EE90C19-81AE-4B92-ABAB-78992BAC1CC6", "endNode": "9CCB5312-2763-4BDC-91D7-16C33A8FDD4E", "structure": null, "nameTOID": "osgb4000000025356947", "numberTOID": null, "function": "Local Road" }, "geometry": { "type": "LineString", "coordinates": [ [ 286635.0, 79059.0, 0.0 ], [ 286638.100000000034925, 79027.470000000001164, 0.0 ], [ 286641.200000000011642, 78995.940000000002328, 0.0 ] ] } },
{ "type": "Feature", "properties": { "fictitious": "false", "identifier": "B68D7678-8FF8-4EA5-B63F-B4A94659B526", "class": "B Road", "roadNumber": "B3344", "name1": null, "name1_lang": null, "name2": null, "name2_lang": null, "formOfWay": "Single Carriageway", "length": 30, "primary": "false", "trunkRoad": "false", "loop": "false", "startNode": "6E2DF8D1-FC02-4656-A679-ED403AACE70D", "endNode": "F1FF2A12-373D-47F8-89FD-196E544DF6C2", "structure": null, "nameTOID": null, "numberTOID": "osgb4000000025366224", "function": "B Road" }, "geometry": { "type": "LineString", "coordinates": [ [ 286427.03000000002794, 79002.960000000006403, 0.0 ], [ 286435.60999999998603, 79015.509999999994761, 0.0 ], [ 286444.200000000011642, 79028.059999999997672, 0.0 ] ] } },
{ "type": "Feature", "properties": { "fictitious": "false", "identifier": "2F1F4669-4981-49E0-931D-FD4D835B760E", "class": "Unknown", "roadNumber": null, "name1": null, "name1_lang": null, "name2": null, "name2_lang": null, "formOfWay": "Single Carriageway", "length": 51, "primary": "false", "trunkRoad": "false", "loop": "false", "startNode": "6E2DF8D1-FC02-4656-A679-ED403AACE70D", "endNode": "CC65BE4D-AD6A-44CE-ACF4-D1575DC09734", "structure": null, "nameTOID": null, "numberTOID": null, "function": "Restricted Local Access Road" }, "geometry": { "type": "LineString", "coordinates": [ [ 286427.03000000002794, 79002.960000000006403, 0.0 ], [ 286406.720000000030268, 79018.259999999994761, 0.0 ], [ 286395.35999999998603, 79026.820000000006985, 0.0 ], [ 286391.87, 79024.440000000002328, 0.0 ], [ 286389.049999999988358, 79022.509999999994761, 0.0 ], [ 286386.12, 79020.509999999994761, 0.0 ] ] } },
{ "type": "Feature", "properties": { "fictitious": "false", "identifier": "2AF74234-9C46-4D9D-B2FA-EC1CA29956D7", "class": "Unclassified", "roadNumber": null, "name1": "Calvados Close", "name1_lang": null, "name2": null, "name2_lang": null, "formOfWay": "Single Carriageway", "length": 50, "primary": "false", "trunkRoad": "false", "loop": "false", "startNode": "7C75D023-4CDB-4994-A8F8-AD8344E02872", "endNode": "DA0C40CC-D43C-40BB-B8EF-2083C9679B70", "structure": null, "nameTOID": "osgb4000000025365567", "numberTOID": null, "function": "Local Road" }, "geometry": { "type": "LineString", "coordinates": [ [ 286805.0, 79031.0, 0.0 ], [ 286788.910000000032596, 79035.850000000005821, 0.0 ], [ 286772.81, 79040.710000000006403, 0.0 ], [ 286768.31, 79045.75, 0.0 ], [ 286763.81, 79050.790000000008149, 0.0 ], [ 286762.979999999981374, 79051.86, 0.0 ], [ 286762.160000000032596, 79052.919999999998254, 0.0 ] ] } },
{ "type": "Feature", "properties": { "fictitious": "false", "identifier": "BD77529A-C8DD-41FA-BA05-4E4D7D753D8B", "class": "Unclassified", "roadNumber": null, "name1": "Moor View", "name1_lang": null, "name2": null, "name2_lang": null, "formOfWay": "Single Carriageway", "length": 198, "primary": "false", "trunkRoad": "false", "loop": "false", "startNode": "FA127AA9-B8C6-4B57-BEA5-DC33AB972B1D", "endNode": "31548D13-7901-4B40-AB61-BC76914E5C20", "structure": null, "nameTOID": "osgb4000000025363550", "numberTOID": null, "function": "Local Road" }, "geometry": { "type": "MultiLineString", "coordinates": [ [ [ 286388.507432755548507, 79300.0, 0.0 ], [ 286391.419999999983702, 79274.150000000008731, 0.0 ], [ 286362.210000000020955, 79267.070000000006985, 0.0 ], [ 286350.0, 79264.114686751112458, 0.0 ] ], [ [ 286350.0, 79223.0, 0.0 ], [ 286352.57, 79223.880000000004657, 0.0 ], [ 286378.06, 79232.650000000008731, 0.0 ] ] ] } },
{ "type": "Feature", "properties": { "fictitious": "false", "identifier": "7CB3F90F-7176-4472-9B5F-F8969EFD7FB8", "class": "Not Classified", "roadNumber": null, "name1": "Coburg Crescent", "name1_lang": null, "name2": null, "name2_lang": null, "formOfWay": "Single Carriageway", "length": 88, "primary": "false", "trunkRoad": "false", "loop": "false", "startNode": "72C24CFE-E89C-478C-BE63-E1164E570776", "endNode": "69433C7E-F433-4E36-A586-31D889D762FE", "structure": null, "nameTOID": "osgb5000005156800623", "numberTOID": null, "function": "Local Road" }, "geometry": { "type": "LineString", "coordinates": [ [ 286402.830000000016298, 79157.490000000005239, 0.0 ], [ 286375.51, 79149.470000000001164, 0.0 ], [ 286370.539999999979045, 79141.39, 0.0 ], [ 286350.660000000032596, 79109.059999999997672, 0.0 ], [ 286350.0, 79107.710882352883345, 0.0 ] ] } },
{ "type": "Feature", "properties": { "fictitious": "false", "identifier": "9B446E81-E936-4605-974B-063C9C5C4A8D", "class": "Not Classified", "roadNumber": null, "name1": "Coburg Crescent", "name1_lang": null, "name2": null, "name2_lang": null, "formOfWay": "Single Carriageway", "length": 167, "primary": "false", "trunkRoad": "false", "loop": "false", "startNode": "F1FF2A12-373D-47F8-89FD-196E544DF6C2", "endNode": "72C24CFE-E89C-478C-BE63-E1164E570776", "structure": null, "nameTOID": "osgb5000005156800623", "numberTOID": null, "function": "Local Road" }, "geometry": { "type": "LineString", "coordinates": [ [ 286444.200000000011642, 79028.059999999997672, 0.0 ], [ 286409.26, 79046.369999999995343, 0.0 ], [ 286401.39000000001397, 79057.080000000001746, 0.0 ], [ 286401.850000000034925, 79072.600000000005821, 0.0 ], [ 286407.44, 79086.600000000005821, 0.0 ], [ 286424.419999999983702, 79129.169999999998254, 0.0 ], [ 286417.82, 79147.540000000008149, 0.0 ], [ 286402.830000000016298, 79157.490000000005239, 0.0 ] ] } },
{ "type": "Feature", "properties": { "fictitious": "false", "identifier": "BA593944-CADB-4580-9B07-64FA97A59CF3", "class": "Not Classified", "roadNumber": null, "name1": "Fairpark Close", "name1_lang": null, "name2": null, "name2_lang": null, "formOfWay": "Single Carriageway", "length": 72, "primary": "false", "trunkRoad": "false", "loop": "false", "startNode": "72C24CFE-E89C-478C-BE63-E1164E570776", "endNode": "35481DDB-2F59-4F1C-8C00-5D7E29EB8884", "structure": null, "nameTOID": "osgb5000005211162832", "numberTOID": null, "function": "Local Road" }, "geometry": { "type": "LineString", "coordinates": [ [ 286402.830000000016298, 79157.490000000005239, 0.0 ], [ 286408.10999999998603, 79165.690000000002328, 0.0 ], [ 286413.39000000001397, 79173.89, 0.0 ], [ 286426.43, 79190.460000000006403, 0.0 ], [ 286439.470000000030268, 79207.029999999998836, 0.0 ], [ 286436.69, 79211.520000000004075, 0.0 ], [ 286433.919999999983702, 79216.009999999994761, 0.0 ] ] } },
{ "type": "Feature", "properties": { "fictitious": "false", "identifier": "FFDFABED-1908-496E-A8C5-167E091FCE83", "class": "Unknown", "roadNumber": null, "name1": null, "name1_lang": null, "name2": null, "name2_lang": null, "formOfWay": "Single Carriageway", "length": 40, "primary": "false", "trunkRoad": "false", "loop": "false", "startNode": "35481DDB-2F59-4F1C-8C00-5D7E29EB8884", "endNode": "8FF81049-6EFC-44EF-AEEE-5C0FA74F341D", "structure": null, "nameTOID": null, "numberTOID": null, "function": "Restricted Local Access Road" }, "geometry": { "type": "LineString", "coordinates": [ [ 286433.919999999983702, 79216.009999999994761, 0.0 ], [ 286445.080000000016298, 79232.809999999997672, 0.0 ], [ 286456.24, 79249.61, 0.0 ] ] } },
{ "type": "Feature", "properties": { "fictitious": "false", "identifier": "454B94C7-6ED1-4242-B450-3AEC8BCE3429", "class": "B Road", "roadNumber": "B3344", "name1": null, "name1_lang": null, "name2": null, "name2_lang": null, "formOfWay": "Single Carriageway", "length": 69, "primary": "false", "trunkRoad": "false", "loop": "false", "startNode": "F1FF2A12-373D-47F8-89FD-196E544DF6C2", "endNode": "D5612872-4E83-44BB-BF71-10599F6C0A37", "structure": null, "nameTOID": null, "numberTOID": "osgb4000000025366224", "function": "B Road" }, "geometry": { "type": "LineString", "coordinates": [ [ 286444.200000000011642, 79028.059999999997672, 0.0 ], [ 286463.210000000020955, 79056.94999999999709, 0.0 ], [ 286482.229999999981374, 79085.850000000005821, 0.0 ] ] } },
{ "type": "Feature", "properties": { "fictitious": "false", "identifier": "094BCFAD-EBF0-4EA3-8DCD-C9A411F2F639", "class": "B Road", "roadNumber": "B3344", "name1": "Parade", "name1_lang": null, "name2": null, "name2_lang": null, "formOfWay": "Single Carriageway", "length": 251, "primary": "false", "trunkRoad": "false", "loop": "false", "startNode": "D5612872-4E83-44BB-BF71-10599F6C0A37", "endNode": "70E07CDC-FD65-4E64-A1F1-ED0E44B4229F", "structure": null, "nameTOID": "osgb4000000025360192", "numberTOID": "osgb4000000025366224", "function": "B Road" }, "geometry": { "type": "LineString", "coordinates": [ [ 286482.229999999981374, 79085.850000000005821, 0.0 ], [ 286496.270000000018626, 79132.930000000007567, 0.0 ], [ 286505.650000000023283, 79153.130000000004657, 0.0 ], [ 286535.720000000030268, 79217.900000000008731, 0.0 ], [ 286563.85999999998603, 79263.94999999999709, 0.0 ], [ 286585.889250814332627, 79300.0, 0.0 ] ] } },
{ "type": "Feature", "properties": { "fictitious": "false", "identifier": "C3B68BE4-D4C3-4238-B633-017D887887F2", "class": "Unknown", "roadNumber": null, "name1": "Rock Road", "name1_lang": null, "name2": null, "name2_lang": null, "formOfWay": "Single Carriageway", "length": 58, "primary": "false", "trunkRoad": "false", "loop": "false", "startNode": "D5612872-4E83-44BB-BF71-10599F6C0A37", "endNode": "1ECDACE1-A78C-47B5-A977-92153D41E023", "structure": null, "nameTOID": "osgb4000000025356946", "numberTOID": null, "function": "Minor Road" }, "geometry": { "type": "LineString", "coordinates": [ [ 286482.229999999981374, 79085.850000000005821, 0.0 ], [ 286499.62, 79062.419999999998254, 0.0 ], [ 286517.0, 79039.0, 0.0 ] ] } },
{ "type": "Feature", "properties": { "fictitious": "false", "identifier": "855C5289-5727-4AB6-9C81-E68A8D3D6771", "class": "Unclassified", "roadNumber": null, "name1": "Palace Meadow", "name1_lang": null, "name2": null, "name2_lang": null, "formOfWay": "Single Carriageway", "length": 110, "primary": "false", "trunkRoad": "false", "loop": "false", "startNode": "D3F8A73C-1253-4D9B-97BB-F552B1B4587D", "endNode": "9EE90C19-81AE-4B92-ABAB-78992BAC1CC6", "structure": null, "nameTOID": "osgb4000000025356947", "numberTOID": null, "function": "Local Road" }, "geometry": { "type": "LineString", "coordinates": [ [ 286563.03000000002794, 79109.0, 0.0 ], [ 286564.0, 79078.0, 0.0 ], [ 286570.0, 79066.0, 0.0 ], [ 286580.410000000032596, 79064.880000000004657, 0.0 ], [ 286635.0, 79059.0, 0.0 ] ] } },
{ "type": "Feature", "properties": { "fictitious": "false", "identifier": "C4BBE1F6-F080-4579-8CC5-F6756426688E", "class": "Unknown", "roadNumber": null, "name1": "Palace Gardens", "name1_lang": null, "name2": null, "name2_lang": null, "formOfWay": "Single Carriageway", "length": 73, "primary": "false", "trunkRoad": "false", "loop": "false", "startNode": "B3DD5459-E89F-42AF-97ED-D74EDCD1DEE2", "endNode": "9186A56A-DFC8-4CCB-9261-912A8A97D8B0", "structure": null, "nameTOID": "osgb4000000025432975", "numberTOID": null, "function": "Local Road" }, "geometry": { "type": "LineString", "coordinates": [ [ 286634.57, 79141.020000000004075, 0.0 ], [ 286621.150000000023283, 79145.94999999999709, 0.0 ], [ 286607.74, 79150.880000000004657, 0.0 ], [ 286598.049999999988358, 79156.869999999995343, 0.0 ], [ 286594.99, 79158.759999999994761, 0.0 ], [ 286591.419999999983702, 79151.839999999996508, 0.0 ], [ 286584.350000000034925, 79143.86, 0.0 ], [ 286577.28000000002794, 79135.880000000004657, 0.0 ] ] } },
{ "type": "Feature", "properties": { "fictitious": "false", "identifier": "B81979FB-5BD0-47D4-A371-2EF6CD3BC6E9", "class": "Unclassified", "roadNumber": null, "name1": "Lawn Drive", "name1_lang": null, "name2": null, "name2_lang": null, "formOfWay": "Single Carriageway", "length": 77, "primary": "false", "trunkRoad": "false", "loop": "false", "startNode": "70E07CDC-FD65-4E64-A1F1-ED0E44B4229F", "endNode": "396D767C-AE8C-455E-8891-711C7EC9D2E5", "structure": null, "nameTOID": "osgb4000000025355093", "numberTOID": null, "function": "Minor Road" }, "geometry": { "type": "LineString", "coordinates": [ [ 286604.04081632650923, 79300.0, 0.0 ], [ 286621.5, 79285.5, 0.0 ], [ 286651.0, 79261.0, 0.0 ] ] } },
{ "type": "Feature", "properties": { "fictitious": "false", "identifier": "EA079B93-B658-411F-BB7C-AED3C7D4E164", "class": "Unclassified", "roadNumber": null, "name1": "Palace Meadow", "name1_lang": null, "name2": null, "name2_lang": null, "formOfWay": "Single Carriageway", "length": 71, "primary": "false", "trunkRoad": "false", "loop": "false", "startNode": "16A962D0-9DC3-4387-8132-DD3E62955172", "endNode": "B3DD5459-E89F-42AF-97ED-D74EDCD1DEE2", "structure": null, "nameTOID": "osgb4000000025356947", "numberTOID": null, "function": "Local Road" }, "geometry": { "type": "LineString", "coordinates": [ [ 286632.0, 79071.0, 0.0 ], [ 286628.850000000034925, 79106.380000000004657, 0.0 ], [ 286628.0, 79116.0, 0.0 ], [ 286634.57, 79141.020000000004075, 0.0 ] ] } }
]
}
