{"type": "FeatureCollection", "features": [{"type": "Feature", "properties": {"fictitious": "false", "identifier": "CFC72091-6394-4778-95E3-8D2D87BBE23C", "class": "Unknown", "roadNumber": null, "name1": null, "name1_lang": null, "name2": null, "name2_lang": null, "formOfWay": "Single Carriageway", "length": 109, "primary": "false", "trunkRoad": "false", "loop": "false", "startNode": "C23EDF69-78CD-430D-826A-751E08C6EFB7", "endNode": "E481597B-096D-47EA-9D64-F682D286FC04", "structure": null, "nameTOID": null, "numberTOID": null, "function": "Restricted Local Access Road", "layer": "roads"}, "geometry": {"type": "LineString", "coordinates": [[286355.89, 78833.74, 0.0], [286358.67, 78831.36, 0.0], [286375.06, 78817.27, 0.0], [286385.98, 78807.89, 0.0], [286394.24, 78800.8, 0.0], [286412.64, 78800.16, 0.0], [286417.36666666664, 78800.0, 0.0]]}}, {"type": "Feature", "properties": {"fictitious": "false", "identifier": "606DED21-AB5E-4F38-BAAC-0E0242458CE5", "class": "Unclassified", "roadNumber": null, "name1": "Horseshoe Close", "name1_lang": null, "name2": null, "name2_lang": null, "formOfWay": "Single Carriageway", "length": 70, "primary": "false", "trunkRoad": "false", "loop": "false", "startNode": "16A962D0-9DC3-4387-8132-DD3E62955172", "endNode": "3DDC48FE-B80F-4980-9CC2-3AC0F1922009", "structure": null, "nameTOID": "osgb4000000025363549", "numberTOID": null, "function": "Local Road", "layer": "roads"}, "geometry": {"type": "LineString", "coordinates": [[286632.0, 79071.0, 0.0], [286662.99, 79069.5, 0.0], [286693.97000000003, 79068.0, 0.0], [286697.99, 79068.0, 0.0], [286702.0, 79068.0, 0.0]]}}, {"type": "Feature", "properties": {"fictitious": "false", "identifier": "EFACEA89-D9C2-4E1A-8E0A-38C57789ABD5", "class": "Unclassified", "roadNumber": null, "name1": "Palace Meadow", "name1_lang": null, "name2": null, "name2_lang": null, "formOfWay": "Single Carriageway", "length": 12, "primary": "false", "trunkRoad": "false", "loop": "false", "startNode": "9EE90C19-81AE-4B92-ABAB-78992BAC1CC6", "endNode": "16A962D0-9DC3-4387-8132-DD3E62955172", "structure": null, "nameTOID": "osgb4000000025356947", "numberTOID": null, "function": "Local Road", "layer": "roads"}, "geometry": {"type": "LineString", "coordinates": [[286635.0, 79059.0, 0.0], [286633.5, 79065.0, 0.0], [286632.0, 79071.0, 0.0]]}}, {"type": "Feature", "properties": {"fictitious": "false", "identifier": "0C1A11D1-B9B9-4187-B3CF-E80A3330F5D2", "class": "Unclassified", "roadNumber": null, "name1": "Palace Meadow", "name1_lang": null, "name2": null, "name2_lang": null, "formOfWay": "Single Carriageway", "length": 66, "primary": "false", "trunkRoad": "false", "loop": "false", "startNode": "B3DD5459-E89F-42AF-97ED-D74EDCD1DEE2", "endNode": "E76701D5-1EF8-4273-A332-0968734D4DBC", "structure": null, "nameTOID": "osgb4000000025356947", "numberTOID": null, "function": "Local Road", "layer": "roads"}, "geometry": {"type": "LineString", "coordinates": [[286634.57, 79141.02, 0.0], [286654.28, 79147.01, 0.0], [286674.0, 79153.0, 0.0], [286680.34, 79163.90000000001, 0.0], [286686.67, 79174.79000000001, 0.0]]}}, {"type": "Feature", "properties": {"fictitious": "false", "identifier": "681E06F4-9432-4528-838A-1912F2EE6EEF", "class": "Unclassified", "roadNumber": null, "name1": "Lawn Gardens", "name1_lang": null, "name2": null, "name2_lang": null, "formOfWay": "Single Carriageway", "length": 101, "primary": "false", "trunkRoad": "false", "loop": "false", "startNode": "A50202AC-E42B-4569-99EF-835FBC1AB91C", "endNode": "396D767C-AE8C-455E-8891-711C7EC9D2E5", "structure": null, "nameTOID": "osgb4000000025363551", "numberTOID": null, "function": "Local Road", "layer": "roads"}, "geometry": {"type": "LineString", "coordinates": [[286692.95213114755, 79300.0, 0.0], [286688.0, 79292.0, 0.0], [286680.0, 79289.18000000001, 0.0], [286672.0, 79286.36, 0.0], [286661.5, 79273.68000000001, 0.0], [286651.0, 79261.0, 0.0]]}}, {"type": "Feature", "properties": {"fictitious": "false", "identifier": "75C97769-A947-4083-BDDB-22BE79EFF0ED", "class": "Unclassified", "roadNumber": null, "name1": "Lawn Drive", "name1_lang": null, "name2": null, "name2_lang": null, "formOfWay": "Single Carriageway", "length": 69, "primary": "false", "trunkRoad": "false", "loop": "false", "startNode": "396D767C-AE8C-455E-8891-711C7EC9D2E5", "endNode": "AED057C0-E2D7-4E6F-807F-CF5D25334BF8", "structure": null, "nameTOID": "osgb4000000025355093", "numberTOID": null, "function": "Minor Road", "layer": "roads"}, "geometry": {"type": "LineString", "coordinates": [[286651.0, 79261.0, 0.0], [286670.17, 79247.21, 0.0], [286689.35000000003, 79233.42, 0.0], [286698.67, 79228.21, 0.0], [286708.0, 79223.0, 0.0]]}}, {"type": "Feature", "properties": {"fictitious": "false", "identifier": "1DACB586-9A83-4101-AF8B-2F0DBA6C2446", "class": "Unclassified", "roadNumber": null, "name1": "Palace Meadow", "name1_lang": null, "name2": null, "name2_lang": null, "formOfWay": "Single Carriageway", "length": 53, "primary": "false", "trunkRoad": "false", "loop": "false", "startNode": "E76701D5-1EF8-4273-A332-0968734D4DBC", "endNode": "AED057C0-E2D7-4E6F-807F-CF5D25334BF8", "structure": null, "nameTOID": "osgb4000000025356947", "numberTOID": null, "function": "Local Road", "layer": "roads"}, "geometry": {"type": "LineString", "coordinates": [[286686.67, 79174.79000000001, 0.0], [286688.84, 79181.40000000001, 0.0], [286691.0, 79188.0, 0.0], [286699.5, 79205.5, 0.0], [286708.0, 79223.0, 0.0]]}}, {"type": "Feature", "properties": {"fictitious": "false", "identifier": "98BCC2AA-3F77-4BB3-AA80-91694AF93661", "class": "Unclassified", "roadNumber": null, "name1": "Palace Meadow", "name1_lang": null, "name2": null, "name2_lang": null, "formOfWay": "Single Carriageway", "length": 59, "primary": "false", "trunkRoad": "false", "loop": "false", "startNode": "E76701D5-1EF8-4273-A332-0968734D4DBC", "endNode": "CE24727E-1DBB-41BC-AFD4-584004CD0154", "structure": null, "nameTOID": "osgb4000000025356947", "numberTOID": null, "function": "Local Road", "layer": "roads"}, "geometry": {"type": "LineString", "coordinates": [[286686.67, 79174.79000000001, 0.0], [286709.67, 79165.11, 0.0], [286732.67, 79155.42, 0.0], [286736.5, 79153.03, 0.0], [286740.32, 79150.64, 0.0]]}}, {"type": "Feature", "properties": {"fictitious": "false", "identifier": "21B3EA82-8987-493F-B07E-3A0F06FB7144", "class": "Unclassified", "roadNumber": null, "name1": "Lawn Drive", "name1_lang": null, "name2": null, "name2_lang": null, "formOfWay": "Single Carriageway", "length": 118, "primary": "false", "trunkRoad": "false", "loop": "false", "startNode": "AED057C0-E2D7-4E6F-807F-CF5D25334BF8", "endNode": "8B23EE97-F826-487D-BAC2-3C0F73513319", "structure": null, "nameTOID": "osgb4000000025355093", "numberTOID": null, "function": "Minor Road", "layer": "roads"}, "geometry": {"type": "LineString", "coordinates": [[286708.0, 79223.0, 0.0], [286734.5, 79206.5, 0.0], [286761.0, 79190.0, 0.0], [286774.01, 79175.6, 0.0], [286787.02, 79161.19, 0.0], [286793.01, 79155.6, 0.0], [286799.0, 79150.0, 0.0]]}}, {"type": "Feature", "properties": {"fictitious": "false", "identifier": "0249977D-2D02-4A55-9544-519093781967", "class": "Unclassified", "roadNumber": null, "name1": "Troarn Way", "name1_lang": null, "name2": null, "name2_lang": null, "formOfWay": "Single Carriageway", "length": 45, "primary": "false", "trunkRoad": "false", "loop": "false", "startNode": "F9F9F410-D983-49B1-97A7-C757B4EE1D80", "endNode": "558E18F5-96D1-4F6D-9B1B-4089BC23C9C4", "structure": null, "nameTOID": "osgb4000000025360193", "numberTOID": null, "function": "Local Road", "layer": "roads"}, "geometry": {"type": "LineString", "coordinates": [[286783.08, 79110.63, 0.0], [286789.54, 79109.31, 0.0], [286796.0, 79108.0, 0.0], [286811.0, 79102.5, 0.0], [286826.0, 79097.0, 0.0]]}}, {"type": "Feature", "properties": {"fictitious": "false", "identifier": "B475D850-B6C4-4623-BE5D-1FADDA0274DC", "class": "Unclassified", "roadNumber": null, "name1": "Lawn Drive", "name1_lang": null, "name2": null, "name2_lang": null, "formOfWay": "Single Carriageway", "length": 45, "primary": "false", "trunkRoad": "false", "loop": "false", "startNode": "8B23EE97-F826-487D-BAC2-3C0F73513319", "endNode": "2B1A1BDE-9F29-4DF3-81F9-FB767A79C2D3", "structure": null, "nameTOID": "osgb4000000025355093", "numberTOID": null, "function": "Minor Road", "layer": "roads"}, "geometry": {"type": "LineString", "coordinates": [[286799.0, 79150.0, 0.0], [286817.5, 79137.0, 0.0], [286836.0, 79124.0, 0.0]]}}, {"type": "Feature", "properties": {"fictitious": "false", "identifier": "0D51C912-FD2C-427C-BF9C-8E461A4D4A06", "class": "Unclassified", "roadNumber": null, "name1": "St Marys Close", "name1_lang": null, "name2": null, "name2_lang": null, "formOfWay": "Single Carriageway", "length": 38, "primary": "false", "trunkRoad": "false", "loop": "false", "startNode": "8B23EE97-F826-487D-BAC2-3C0F73513319", "endNode": "12FE8923-D8C4-4830-B42C-48B10E186975", "structure": null, "nameTOID": "osgb4000000025365568", "numberTOID": null, "function": "Local Road", "layer": "roads"}, "geometry": {"type": "LineString", "coordinates": [[286799.0, 79150.0, 0.0], [286812.05, 79163.96, 0.0], [286825.10000000003, 79177.92, 0.0]]}}, {"type": "Feature", "properties": {"fictitious": "false", "identifier": "E1333706-1F49-4AE1-9701-55ECCE5D5624", "class": "Unclassified", "roadNumber": null, "name1": "Troarn Way", "name1_lang": null, "name2": null, "name2_lang": null, "formOfWay": "Single Carriageway", "length": 69, "primary": "false", "trunkRoad": "false", "loop": "false", "startNode": "558E18F5-96D1-4F6D-9B1B-4089BC23C9C4", "endNode": "7C75D023-4CDB-4994-A8F8-AD8344E02872", "structure": null, "nameTOID": "osgb4000000025360193", "numberTOID": null, "function": "Local Road", "layer": "roads"}, "geometry": {"type": "LineString", "coordinates": [[286826.0, 79097.0, 0.0], [286815.5, 79064.0, 0.0], [286805.0, 79031.0, 0.0]]}}, {"type": "Feature", "properties": {"fictitious": "false", "identifier": "3C944C97-F989-4293-BE79-7799932C20B0", "class": "Unclassified", "roadNumber": null, "name1": "St Marys Close", "name1_lang": null, "name2": null, "name2_lang": null, "formOfWay": "Single Carriageway", "length": 39, "primary": "false", "trunkRoad": "false", "loop": "false", "startNode": "12FE8923-D8C4-4830-B42C-48B10E186975", "endNode": "00A96702-65E0-4229-AED7-766387066E70", "structure": null, "nameTOID": "osgb4000000025365568", "numberTOID": null, "function": "Local Road", "layer": "roads"}, "geometry": {"type": "LineString", "coordinates": [[286825.10000000003, 79177.92, 0.0], [286826.0, 79193.0, 0.0], [286823.02, 79196.35, 0.0], [286810.0, 79211.0, 0.0]]}}, {"type": "Feature", "properties": {"fictitious": "false", "identifier": "C5DE7542-0D52-499F-89C6-061A3C23C3FC", "class": "Unclassified", "roadNumber": null, "name1": "St Marys Close", "name1_lang": null, "name2": null, "name2_lang": null, "formOfWay": "Single Carriageway", "length": 38, "primary": "false", "trunkRoad": "false", "loop": "false", "startNode": "3622CB59-44F0-4DDE-9170-30B24D29E158", "endNode": "12FE8923-D8C4-4830-B42C-48B10E186975", "structure": null, "nameTOID": "osgb4000000025365568", "numberTOID": null, "function": "Local Road", "layer": "roads"}, "geometry": {"type": "LineString", "coordinates": [[286850.0, 79171.51449814126, 0.0], [286838.55, 79174.46, 0.0], [286825.10000000003, 79177.92, 0.0]]}}, {"type": "Feature", "properties": {"fictitious": "false", "identifier": "4D1D7AD8-8EDB-4DA2-9F5C-7849D506BF8D", "class": "Unclassified", "roadNumber": null, "name1": "Troarn Way", "name1_lang": null, "name2": null, "name2_lang": null, "formOfWay": "Single Carriageway", "length": 29, "primary": "false", "trunkRoad": "false", "loop": "false", "startNode": "2B1A1BDE-9F29-4DF3-81F9-FB767A79C2D3", "endNode": "558E18F5-96D1-4F6D-9B1B-4089BC23C9C4", "structure": null, "nameTOID": "osgb4000000025360193", "numberTOID": null, "function": "Local Road", "layer": "roads"}, "geometry": {"type": "LineString", "coordinates": [[286836.0, 79124.0, 0.0], [286831.0, 79110.5, 0.0], [286826.0, 79097.0, 0.0]]}}, {"type": "Feature", "properties": {"fictitious": "false", "identifier": "7C7665AB-D146-42E0-A0E5-7706D1B28AA0", "class": "Unclassified", "roadNumber": null, "name1": "Lawn Drive", "name1_lang": null, "name2": null, "name2_lang": null, "formOfWay": "Single Carriageway", "length": 36, "primary": "false", "trunkRoad": "false", "loop": "false", "startNode": "2B1A1BDE-9F29-4DF3-81F9-FB767A79C2D3", "endNode": "35CF1911-4653-4A77-9038-7C31FAD2C4F6", "structure": null, "nameTOID": "osgb4000000025355093", "numberTOID": null, "function": "Minor Road", "layer": "roads"}, "geometry": {"type": "LineString", "coordinates": [[286836.0, 79124.0, 0.0], [286850.0, 79120.0, 0.0]]}}, {"type": "Feature", "properties": {"fictitious": "false", "identifier": "CA00B4C2-EB19-418F-B13D-F61DBD32D4DC", "class": "Unknown", "roadNumber": null, "name1": null, "name1_lang": null, "name2": null, "name2_lang": null, "formOfWay": "Single Carriageway", "length": 52, "primary": "false", "trunkRoad": "false", "loop": "false", "startNode": "88BD98F1-1CC0-42E8-9555-3927F3740AC5", "endNode": "C23EDF69-78CD-430D-826A-751E08C6EFB7", "structure": null, "nameTOID": null, "numberTOID": null, "function": "Restricted Local Access Road", "layer": "roads"}, "geometry": {"type": "LineString", "coordinates": [[286350.0, 78829.5466868512, 0.0], [286355.89, 78833.74, 0.0]]}}, {"type": "Feature", "properties": {"fictitious": "false", "identifier": "C32BE268-D34B-4535-A456-FA3352656930", "class": "Unknown", "roadNumber": null, "name1": "Rock Road", "name1_lang": null, "name2": null, "name2_lang": null, "formOfWay": "Single Carriageway", "length": 64, "primary": "false", "trunkRoad": "false", "loop": "false", "startNode": "4EA855DE-6765-45DB-B078-7685C4E0C794", "endNode": "31847F0C-890B-4FB5-90DE-83A688378847", "structure": null, "nameTOID": "osgb4000000025356946", "numberTOID": null, "function": "Local Road", "layer": "roads"}, "geometry": {"type": "LineString", "coordinates": [[286701.21, 78871.23, 0.0], [286724.0, 78859.0, 0.0], [286727.68, 78853.8, 0.0], [286744.63, 78829.86, 0.0], [286746.31, 78827.49, 0.0]]}}, {"type": "Feature", "properties": {"fictitious": "false", "identifier": "D9CEC8AC-312B-4407-A308-E7838A625B81", "class": "Unknown", "roadNumber": null, "name1": null, "name1_lang": null, "name2": null, "name2_lang": null, "formOfWay": "Single Carriageway", "length": 37, "primary": "false", "trunkRoad": "false", "loop": "false", "startNode": "E106DF8D-350C-4A22-B6A9-6258CEA151B2", "endNode": "C23EDF69-78CD-430D-826A-751E08C6EFB7", "structure": null, "nameTOID": null, "numberTOID": null, "function": "Restricted Local Access Road", "layer": "roads"}, "geometry": {"type": "LineString", "coordinates": [[286351.19, 78870.47, 0.0], [286353.54, 78852.11, 0.0], [286355.89, 78833.74, 0.0]]}}, {"type": "Feature", "properties": {"fictitious": "false", "identifier": "11BDD849-4846-454F-B930-B49D2A7B9D40", "class": "B Road", "roadNumber": "B3344", "name1": null, "name1_lang": null, "name2": null, "name2_lang": null, "formOfWay": "Single Carriageway", "length": 47, "primary": "false", "trunkRoad": "false", "loop": "false", "startNode": "88BD98F1-1CC0-42E8-9555-3927F3740AC5", "endNode": "E106DF8D-350C-4A22-B6A9-6258CEA151B2", "structure": null, "nameTOID": null, "numberTOID": "osgb4000000025366224", "function": "B Road", "layer": "roads"}, "geometry": {"type": "LineString", "coordinates": [[286350.0, 78869.20969846153, 0.0], [286351.19, 78870.47, 0.0]]}}, {"type": "Feature", "properties": {"fictitious": "false", "identifier": "BDCC2823-C85A-46CC-B4AA-6CB31A493FBC", "class": "B Road", "roadNumber": "B3344", "name1": null, "name1_lang": null, "name2": null, "name2_lang": null, "formOfWay": "Single Carriageway", "length": 22, "primary": "false", "trunkRoad": "false", "loop": "false", "startNode": "E106DF8D-350C-4A22-B6A9-6258CEA151B2", "endNode": "68F8E6DE-DDAA-4203-B0FA-83A28017CDEF", "structure": null, "nameTOID": null, "numberTOID": "osgb4000000025366224", "function": "B Road", "layer": "roads"}, "geometry": {"type": "LineString", "coordinates": [[286351.19, 78870.47, 0.0], [286358.44, 78878.69, 0.0], [286365.69, 78886.92, 0.0]]}}, {"type": "Feature", "properties": {"fictitious": "false", "identifier": "B17FF85C-3E9A-4D56-9857-80AE8966A312", "class": "Unclassified", "roadNumber": null, "name1": "Parkway Road", "name1_lang": null, "name2": null, "name2_lang": null, "formOfWay": "Single Carriageway", "length": 244, "primary": "false", "trunkRoad": "false", "loop": "false", "startNode": "FA45A371-4E30-40F6-BBF3-07D9F2F93A4C", "endNode": "4EA855DE-6765-45DB-B078-7685C4E0C794", "structure": null, "nameTOID": "osgb4000000025355092", "numberTOID": null, "function": "Minor Road", "layer": "roads"}, "geometry": {"type": "LineString", "coordinates": [[286850.0, 79009.62327766181, 0.0], [286847.24, 78999.05, 0.0], [286826.0, 78980.0, 0.0], [286817.08, 78935.76, 0.0], [286807.88, 78930.64, 0.0], [286796.29, 78924.18000000001, 0.0], [286788.03, 78919.58, 0.0], [286784.69, 78917.72, 0.0], [286701.21, 78871.23, 0.0]]}}, {"type": "Feature", "properties": {"fictitious": "false", "identifier": "6D7E8D1E-8B4F-4E4F-BFB0-317D8C6AADE8", "class": "Unknown", "roadNumber": null, "name1": "Rock Road", "name1_lang": null, "name2": null, "name2_lang": null, "formOfWay": "Single Carriageway", "length": 257, "primary": "false", "trunkRoad": "false", "loop": "false", "startNode": "1ECDACE1-A78C-47B5-A977-92153D41E023", "endNode": "4EA855DE-6765-45DB-B078-7685C4E0C794", "structure": null, "nameTOID": "osgb4000000025356946", "numberTOID": null, "function": "Minor Road", "layer": "roads"}, "geometry": {"type": "LineString", "coordinates": [[286517.0, 79039.0, 0.0], [286556.44, 78982.38, 0.0], [286576.0, 78978.0, 0.0], [286591.33, 78962.38, 0.0], [286669.04, 78883.22, 0.0], [286677.02, 78878.61, 0.0], [286685.0, 78874.0, 0.0], [286693.10000000003, 78872.61, 0.0], [286701.21, 78871.23, 0.0]]}}, {"type": "Feature", "properties": {"fictitious": "false", "identifier": "490B8083-10BB-4197-9328-6E6BBE62DA44", "class": "Unknown", "roadNumber": null, "name1": null, "name1_lang": null, "name2": null, "name2_lang": null, "formOfWay": "Single Carriageway", "length": 79, "primary": "false", "trunkRoad": "false", "loop": "false", "startNode": "68F8E6DE-DDAA-4203-B0FA-83A28017CDEF", "endNode": "F2840BA4-2A97-4026-AE40-4A1E76B7FC6B", "structure": null, "nameTOID": null, "numberTOID": null, "function": "Restricted Local Access Road", "layer": "roads"}, "geometry": {"type": "LineString", "coordinates": [[286365.69, 78886.92, 0.0], [286359.45, 78897.38, 0.0], [286364.76, 78905.89, 0.0], [286369.92, 78914.17, 0.0], [286374.02, 78920.74, 0.0], [286380.07, 78930.44, 0.0], [286359.56, 78949.92, 0.0]]}}, {"type": "Feature", "properties": {"fictitious": "false", "identifier": "EA17ADBE-7907-4378-A1FC-CCC80C7A10FA", "class": "B Road", "roadNumber": "B3344", "name1": null, "name1_lang": null, "name2": null, "name2_lang": null, "formOfWay": "Single Carriageway", "length": 132, "primary": "false", "trunkRoad": "false", "loop": "false", "startNode": "68F8E6DE-DDAA-4203-B0FA-83A28017CDEF", "endNode": "6E2DF8D1-FC02-4656-A679-ED403AACE70D", "structure": null, "nameTOID": null, "numberTOID": "osgb4000000025366224", "function": "B Road", "layer": "roads"}, "geometry": {"type": "LineString", "coordinates": [[286365.69, 78886.92, 0.0], [286400.0, 78943.03, 0.0], [286401.09, 78944.81, 0.0], [286427.03, 79002.96, 0.0]]}}, {"type": "Feature", "properties": {"fictitious": "false", "identifier": "87BB90BD-CF3E-443A-B8B0-1EDD0C941E74", "class": "Unclassified", "roadNumber": null, "name1": "Palace Meadow", "name1_lang": null, "name2": null, "name2_lang": null, "formOfWay": "Single Carriageway", "length": 128, "primary": "false", "trunkRoad": "false", "loop": "false", "startNode": "2FBE32D5-CBBB-49C1-9E59-CCE4DC36D291", "endNode": "AC52DEAF-DCC6-4C98-8FDB-480DA0E39C67", "structure": null, "nameTOID": "osgb4000000025356947", "numberTOID": null, "function": "Local Road", "layer": "roads"}, "geometry": {"type": "LineString", "coordinates": [[286645.0, 78978.0, 0.0], [286672.33, 78978.98, 0.0], [286699.65, 78979.96, 0.0], [286709.69, 78977.12, 0.0], [286719.72000000003, 78974.28, 0.0], [286723.3, 78957.17, 0.0], [286726.87, 78940.06, 0.0], [286728.93, 78935.03, 0.0], [286731.0, 78930.0, 0.0], [286733.5, 78927.5, 0.0], [286736.0, 78925.0, 0.0]]}}, {"type": "Feature", "properties": {"fictitious": "false", "identifier": "53C0F6F4-2D5B-4883-82D0-EF9E8B4D29B4", "class": "Unclassified", "roadNumber": null, "name1": "Palace Meadow", "name1_lang": null, "name2": null, "name2_lang": null, "formOfWay": "Single Carriageway", "length": 36, "primary": "false", "trunkRoad": "false", "loop": "false", "startNode": "2FBE32D5-CBBB-49C1-9E59-CCE4DC36D291", "endNode": "D9A5E3FD-1625-4F9F-BB0F-550BCA39A90B", "structure": null, "nameTOID": "osgb4000000025356947", "numberTOID": null, "function": "Local Road", "layer": "roads"}, "geometry": {"type": "LineString", "coordinates": [[286645.0, 78978.0, 0.0], [286645.94, 78966.76, 0.0], [286646.87, 78955.52, 0.0], [286647.23, 78951.3, 0.0], [286647.58, 78947.08, 0.0], [286647.79, 78944.54000000001, 0.0], [286648.0, 78942.0, 0.0]]}}, {"type": "Feature", "properties": {"fictitious": "false", "identifier": "E6F636F4-165C-4FB7-B3D9-0F81EB398770", "class": "Unclassified", "roadNumber": null, "name1": "Troarn Way", "name1_lang": null, "name2": null, "name2_lang": null, "formOfWay": "Single Carriageway", "length": 88, "primary": "false", "trunkRoad": "false", "loop": "false", "startNode": "7C75D023-4CDB-4994-A8F8-AD8344E02872", "endNode": "A835D1FA-7658-495C-AF2E-22D67C3F26C1", "structure": null, "nameTOID": "osgb4000000025360193", "numberTOID": null, "function": "Local Road", "layer": "roads"}, "geometry": {"type": "LineString", "coordinates": [[286805.0, 79031.0, 0.0], [286808.89, 79010.56, 0.0], [286800.26, 78996.31, 0.0], [286780.84, 78964.27, 0.0], [286777.92, 78958.64, 0.0], [286775.0, 78953.0, 0.0]]}}, {"type": "Feature", "properties": {"fictitious": "false", "identifier": "3D484708-3E22-4D52-9318-D60DFD728D4A", "class": "Unclassified", "roadNumber": null, "name1": "Palace Meadow", "name1_lang": null, "name2": null, "name2_lang": null, "formOfWay": "Single Carriageway", "length": 18, "primary": "false", "trunkRoad": "false", "loop": "false", "startNode": "9CCB5312-2763-4BDC-91D7-16C33A8FDD4E", "endNode": "2FBE32D5-CBBB-49C1-9E59-CCE4DC36D291", "structure": null, "nameTOID": "osgb4000000025356947", "numberTOID": null, "function": "Local Road", "layer": "roads"}, "geometry": {"type": "LineString", "coordinates": [[286641.2, 78995.94, 0.0], [286643.10000000003, 78986.97, 0.0], [286645.0, 78978.0, 0.0]]}}, {"type": "Feature", "properties": {"fictitious": "false", "identifier": "D6DCA92C-2024-49AC-8C84-2F54A5DEE907", "class": "Unknown", "roadNumber": null, "name1": "Rock Road", "name1_lang": null, "name2": null, "name2_lang": null, "formOfWay": "Single Carriageway", "length": 65, "primary": "false", "trunkRoad": "false", "loop": "false", "startNode": "CBEBFEFB-8E6F-4BDE-A424-F44743B494F0", "endNode": "1ECDACE1-A78C-47B5-A977-92153D41E023", "structure": null, "nameTOID": "osgb4000000025356946", "numberTOID": null, "function": "Local Road", "layer": "roads"}, "geometry": {"type": "LineString", "coordinates": [[286475.0, 78990.0, 0.0], [286496.0, 79014.5, 0.0], [286517.0, 79039.0, 0.0]]}}, {"type": "Feature", "properties": {"fictitious": "false", "identifier": "14F58CAE-8911-48DA-BDE2-4081ADD5038C", "class": "Unclassified", "roadNumber": null, "name1": "Palace Meadow", "name1_lang": null, "name2": null, "name2_lang": null, "formOfWay": "Single Carriageway", "length": 37, "primary": "false", "trunkRoad": "false", "loop": "false", "startNode": "9CCB5312-2763-4BDC-91D7-16C33A8FDD4E", "endNode": "477000AB-5855-4380-B9F0-2282CD53C735", "structure": null, "nameTOID": "osgb4000000025356947", "numberTOID": null, "function": "Local Road", "layer": "roads"}, "geometry": {"type": "LineString", "coordinates": [[286641.2, 78995.94, 0.0], [286626.41000000003, 78994.78, 0.0], [286611.61, 78993.61, 0.0], [286607.87, 78993.61, 0.0], [286604.13, 78993.61, 0.0]]}}, {"type": "Feature", "properties": {"fictitious": "false", "identifier": "6BD56340-2A78-4232-B3EE-932A072C8990", "class": "Unclassified", "roadNumber": null, "name1": "Palace Meadow", "name1_lang": null, "name2": null, "name2_lang": null, "formOfWay": "Single Carriageway", "length": 63, "primary": "false", "trunkRoad": "false", "loop": "false", "startNode": "9EE90C19-81AE-4B92-ABAB-78992BAC1CC6", "endNode": "9CCB5312-2763-4BDC-91D7-16C33A8FDD4E", "structure": null, "nameTOID": "osgb4000000025356947", "numberTOID": null, "function": "Local Road", "layer": "roads"}, "geometry": {"type": "LineString", "coordinates": [[286635.0, 79059.0, 0.0], [286638.10000000003, 79027.47, 0.0], [286641.2, 78995.94, 0.0]]}}, {"type": "Feature", "properties": {"fictitious": "false", "identifier": "B68D7678-8FF8-4EA5-B63F-B4A94659B526", "class": "B Road", "roadNumber": "B3344", "name1": null, "name1_lang": null, "name2": null, "name2_lang": null, "formOfWay": "Single Carriageway", "length": 30, "primary": "false", "trunkRoad": "false", "loop": "false", "startNode": "6E2DF8D1-FC02-4656-A679-ED403AACE70D", "endNode": "F1FF2A12-373D-47F8-89FD-196E544DF6C2", "structure": null, "nameTOID": null, "numberTOID": "osgb4000000025366224", "function": "B Road", "layer": "roads"}, "geometry": {"type": "LineString", "coordinates": [[286427.03, 79002.96, 0.0], [286435.61, 79015.51, 0.0], [286444.2, 79028.06, 0.0]]}}, {"type": "Feature", "properties": {"fictitious": "false", "identifier": "2F1F4669-4981-49E0-931D-FD4D835B760E", "class": "Unknown", "roadNumber": null, "name1": null, "name1_lang": null, "name2": null, "name2_lang": null, "formOfWay": "Single Carriageway", "length": 51, "primary": "false", "trunkRoad": "false", "loop": "false", "startNode": "6E2DF8D1-FC02-4656-A679-ED403AACE70D", "endNode": "CC65BE4D-AD6A-44CE-ACF4-D1575DC09734", "structure": null, "nameTOID": null, "numberTOID": null, "function": "Restricted Local Access Road", "layer": "roads"}, "geometry": {"type": "LineString", "coordinates": [[286427.03, 79002.96, 0.0], [286406.72000000003, 79018.26, 0.0], [286395.36, 79026.82, 0.0], [286391.87, 79024.44, 0.0], [286389.05, 79022.51, 0.0], [286386.12, 79020.51, 0.0]]}}, {"type": "Feature", "properties": {"fictitious": "false", "identifier": "2AF74234-9C46-4D9D-B2FA-EC1CA29956D7", "class": "Unclassified", "roadNumber": null, "name1": "Calvados Close", "name1_lang": null, "name2": null, "name2_lang": null, "formOfWay": "Single Carriageway", "length": 50, "primary": "false", "trunkRoad": "false", "loop": "false", "startNode": "7C75D023-4CDB-4994-A8F8-AD8344E02872", "endNode": "DA0C40CC-D43C-40BB-B8EF-2083C9679B70", "structure": null, "nameTOID": "osgb4000000025365567", "numberTOID": null, "function": "Local Road", "layer": "roads"}, "geometry": {"type": "LineString", "coordinates": [[286805.0, 79031.0, 0.0], [286788.91000000003, 79035.85, 0.0], [286772.81, 79040.71, 0.0], [286768.31, 79045.75, 0.0], [286763.81, 79050.79000000001, 0.0], [286762.98, 79051.86, 0.0], [286762.16000000003, 79052.92, 0.0]]}}, {"type": "Feature", "properties": {"fictitious": "false", "identifier": "BD77529A-C8DD-41FA-BA05-4E4D7D753D8B", "class": "Unclassified", "roadNumber": null, "name1": "Moor View", "name1_lang": null, "name2": null, "name2_lang": null, "formOfWay": "Single Carriageway", "length": 198, "primary": "false", "trunkRoad": "false", "loop": "false", "startNode": "FA127AA9-B8C6-4B57-BEA5-DC33AB972B1D", "endNode": "31548D13-7901-4B40-AB61-BC76914E5C20", "structure": null, "nameTOID": "osgb4000000025363550", "numberTOID": null, "function": "Local Road", "layer": "roads"}, "geometry": {"type": "MultiLineString", "coordinates": [[[286388.50743275555, 79300.0, 0.0], [286391.42, 79274.15000000001, 0.0], [286362.21, 79267.07, 0.0], [286350.0, 79264.11468675111, 0.0]], [[286350.0, 79223.0, 0.0], [286352.57, 79223.88, 0.0], [286378.06, 79232.65000000001, 0.0]]]}}, {"type": "Feature", "properties": {"fictitious": "false", "identifier": "7CB3F90F-7176-4472-9B5F-F8969EFD7FB8", "class": "Not Classified", "roadNumber": null, "name1": "Coburg Crescent", "name1_lang": null, "name2": null, "name2_lang": null, "formOfWay": "Single Carriageway", "length": 88, "primary": "false", "trunkRoad": "false", "loop": "false", "startNode": "72C24CFE-E89C-478C-BE63-E1164E570776", "endNode": "69433C7E-F433-4E36-A586-31D889D762FE", "structure": null, "nameTOID": "osgb5000005156800623", "numberTOID": null, "function": "Local Road", "layer": "roads"}, "geometry": {"type": "LineString", "coordinates": [[286402.83, 79157.49, 0.0], [286375.51, 79149.47, 0.0], [286370.54, 79141.39, 0.0], [286350.66000000003, 79109.06, 0.0], [286350.0, 79107.71088235288, 0.0]]}}, {"type": "Feature", "properties": {"fictitious": "false", "identifier": "9B446E81-E936-4605-974B-063C9C5C4A8D", "class": "Not Classified", "roadNumber": null, "name1": "Coburg Crescent", "name1_lang": null, "name2": null, "name2_lang": null, "formOfWay": "Single Carriageway", "length": 167, "primary": "false", "trunkRoad": "false", "loop": "false", "startNode": "F1FF2A12-373D-47F8-89FD-196E544DF6C2", "endNode": "72C24CFE-E89C-478C-BE63-E1164E570776", "structure": null, "nameTOID": "osgb5000005156800623", "numberTOID": null, "function": "Local Road", "layer": "roads"}, "geometry": {"type": "LineString", "coordinates": [[286444.2, 79028.06, 0.0], [286409.26, 79046.37, 0.0], [286401.39, 79057.08, 0.0], [286401.85000000003, 79072.6, 0.0], [286407.44, 79086.6, 0.0], [286424.42, 79129.17, 0.0], [286417.82, 79147.54000000001, 0.0], [286402.83, 79157.49, 0.0]]}}, {"type": "Feature", "properties": {"fictitious": "false", "identifier": "BA593944-CADB-4580-9B07-64FA97A59CF3", "class": "Not Classified", "roadNumber": null, "name1": "Fairpark Close", "name1_lang": null, "name2": null, "name2_lang": null, "formOfWay": "Single Carriageway", "length": 72, "primary": "false", "trunkRoad": "false", "loop": "false", "startNode": "72C24CFE-E89C-478C-BE63-E1164E570776", "endNode": "35481DDB-2F59-4F1C-8C00-5D7E29EB8884", "structure": null, "nameTOID": "osgb5000005211162832", "numberTOID": null, "function": "Local Road", "layer": "roads"}, "geometry": {"type": "LineString", "coordinates": [[286402.83, 79157.49, 0.0], [286408.11, 79165.69, 0.0], [286413.39, 79173.89, 0.0], [286426.43, 79190.46, 0.0], [286439.47000000003, 79207.03, 0.0], [286436.69, 79211.52, 0.0], [286433.92, 79216.01, 0.0]]}}, {"type": "Feature", "properties": {"fictitious": "false", "identifier": "FFDFABED-1908-496E-A8C5-167E091FCE83", "class": "Unknown", "roadNumber": null, "name1": null, "name1_lang": null, "name2": null, "name2_lang": null, "formOfWay": "Single Carriageway", "length": 40, "primary": "false", "trunkRoad": "false", "loop": "false", "startNode": "35481DDB-2F59-4F1C-8C00-5D7E29EB8884", "endNode": "8FF81049-6EFC-44EF-AEEE-5C0FA74F341D", "structure": null, "nameTOID": null, "numberTOID": null, "function": "Restricted Local Access Road", "layer": "roads"}, "geometry": {"type": "LineString", "coordinates": [[286433.92, 79216.01, 0.0], [286445.08, 79232.81, 0.0], [286456.24, 79249.61, 0.0]]}}, {"type": "Feature", "properties": {"fictitious": "false", "identifier": "454B94C7-6ED1-4242-B450-3AEC8BCE3429", "class": "B Road", "roadNumber": "B3344", "name1": null, "name1_lang": null, "name2": null, "name2_lang": null, "formOfWay": "Single Carriageway", "length": 69, "primary": "false", "trunkRoad": "false", "loop": "false", "startNode": "F1FF2A12-373D-47F8-89FD-196E544DF6C2", "endNode": "D5612872-4E83-44BB-BF71-10599F6C0A37", "structure": null, "nameTOID": null, "numberTOID": "osgb4000000025366224", "function": "B Road", "layer": "roads"}, "geometry": {"type": "LineString", "coordinates": [[286444.2, 79028.06, 0.0], [286463.21, 79056.95, 0.0], [286482.23, 79085.85, 0.0]]}}, {"type": "Feature", "properties": {"fictitious": "false", "identifier": "094BCFAD-EBF0-4EA3-8DCD-C9A411F2F639", "class": "B Road", "roadNumber": "B3344", "name1": "Parade", "name1_lang": null, "name2": null, "name2_lang": null, "formOfWay": "Single Carriageway", "length": 251, "primary": "false", "trunkRoad": "false", "loop": "false", "startNode": "D5612872-4E83-44BB-BF71-10599F6C0A37", "endNode": "70E07CDC-FD65-4E64-A1F1-ED0E44B4229F", "structure": null, "nameTOID": "osgb4000000025360192", "numberTOID": "osgb4000000025366224", "function": "B Road", "layer": "roads"}, "geometry": {"type": "LineString", "coordinates": [[286482.23, 79085.85, 0.0], [286496.27, 79132.93000000001, 0.0], [286505.65, 79153.13, 0.0], [286535.72000000003, 79217.90000000001, 0.0], [286563.86, 79263.95, 0.0], [286585.88925081433, 79300.0, 0.0]]}}, {"type": "Feature", "properties": {"fictitious": "false", "identifier": "C3B68BE4-D4C3-4238-B633-017D887887F2", "class": "Unknown", "roadNumber": null, "name1": "Rock Road", "name1_lang": null, "name2": null, "name2_lang": null, "formOfWay": "Single Carriageway", "length": 58, "primary": "false", "trunkRoad": "false", "loop": "false", "startNode": "D5612872-4E83-44BB-BF71-10599F6C0A37", "endNode": "1ECDACE1-A78C-47B5-A977-92153D41E023", "structure": null, "nameTOID": "osgb4000000025356946", "numberTOID": null, "function": "Minor Road", "layer": "roads"}, "geometry": {"type": "LineString", "coordinates": [[286482.23, 79085.85, 0.0], [286499.62, 79062.42, 0.0], [286517.0, 79039.0, 0.0]]}}, {"type": "Feature", "properties": {"fictitious": "false", "identifier": "855C5289-5727-4AB6-9C81-E68A8D3D6771", "class": "Unclassified", "roadNumber": null, "name1": "Palace Meadow", "name1_lang": null, "name2": null, "name2_lang": null, "formOfWay": "Single Carriageway", "length": 110, "primary": "false", "trunkRoad": "false", "loop": "false", "startNode": "D3F8A73C-1253-4D9B-97BB-F552B1B4587D", "endNode": "9EE90C19-81AE-4B92-ABAB-78992BAC1CC6", "structure": null, "nameTOID": "osgb4000000025356947", "numberTOID": null, "function": "Local Road", "layer": "roads"}, "geometry": {"type": "LineString", "coordinates": [[286563.03, 79109.0, 0.0], [286564.0, 79078.0, 0.0], [286570.0, 79066.0, 0.0], [286580.41000000003, 79064.88, 0.0], [286635.0, 79059.0, 0.0]]}}, {"type": "Feature", "properties": {"fictitious": "false", "identifier": "C4BBE1F6-F080-4579-8CC5-F6756426688E", "class": "Unknown", "roadNumber": null, "name1": "Palace Gardens", "name1_lang": null, "name2": null, "name2_lang": null, "formOfWay": "Single Carriageway", "length": 73, "primary": "false", "trunkRoad": "false", "loop": "false", "startNode": "B3DD5459-E89F-42AF-97ED-D74EDCD1DEE2", "endNode": "9186A56A-DFC8-4CCB-9261-912A8A97D8B0", "structure": null, "nameTOID": "osgb4000000025432975", "numberTOID": null, "function": "Local Road", "layer": "roads"}, "geometry": {"type": "LineString", "coordinates": [[286634.57, 79141.02, 0.0], [286621.15, 79145.95, 0.0], [286607.74, 79150.88, 0.0], [286598.05, 79156.87, 0.0], [286594.99, 79158.76, 0.0], [286591.42, 79151.84, 0.0], [286584.35000000003, 79143.86, 0.0], [286577.28, 79135.88, 0.0]]}}, {"type": "Feature", "properties": {"fictitious": "false", "identifier": "B81979FB-5BD0-47D4-A371-2EF6CD3BC6E9", "class": "Unclassified", "roadNumber": null, "name1": "Lawn Drive", "name1_lang": null, "name2": null, "name2_lang": null, "formOfWay": "Single Carriageway", "length": 77, "primary": "false", "trunkRoad": "false", "loop": "false", "startNode": "70E07CDC-FD65-4E64-A1F1-ED0E44B4229F", "endNode": "396D767C-AE8C-455E-8891-711C7EC9D2E5", "structure": null, "nameTOID": "osgb4000000025355093", "numberTOID": null, "function": "Minor Road", "layer": "roads"}, "geometry": {"type": "LineString", "coordinates": [[286604.0408163265, 79300.0, 0.0], [286621.5, 79285.5, 0.0], [286651.0, 79261.0, 0.0]]}}, {"type": "Feature", "properties": {"fictitious": "false", "identifier": "EA079B93-B658-411F-BB7C-AED3C7D4E164", "class": "Unclassified", "roadNumber": null, "name1": "Palace Meadow", "name1_lang": null, "name2": null, "name2_lang": null, "formOfWay": "Single Carriageway", "length": 71, "primary": "false", "trunkRoad": "false", "loop": "false", "startNode": "16A962D0-9DC3-4387-8132-DD3E62955172", "endNode": "B3DD5459-E89F-42AF-97ED-D74EDCD1DEE2", "structure": null, "nameTOID": "osgb4000000025356947", "numberTOID": null, "function": "Local Road", "layer": "roads"}, "geometry": {"type": "LineString", "coordinates": [[286632.0, 79071.0, 0.0], [286628.85000000003, 79106.38, 0.0], [286628.0, 79116.0, 0.0], [286634.57, 79141.02, 0.0]]}}, {"type": "Feature", "properties": {"name1": "Kate Brook", "identifier": "54CD7EC6-7C05-4A49-B203-9D13CBC52113", "startNode": "64129DD0-4101-4C11-B79B-16D8BCA50FB6", "endNode": "3D062F9D-12B7-4DF7-85B6-6F54DABF2D60", "form": "inlandRiver", "flow": "in direction", "fictitious": "false", "length": 1935, "name2": null, "layer": "rivers"}, "geometry": {"type": "LineString", "coordinates": [[286850.0, 78973.09810692375, 0.0], [286842.46, 78968.36, 0.0], [286835.84, 78921.68000000001, 0.0], [286806.26, 78892.04000000001, 0.0], [286791.3, 78854.01, 0.0], [286743.58, 78826.76, 0.0], [286737.9182611037, 78800.0, 0.0]]}}, {"type": "Feature", "properties": {"uuid": "920aa41f-bbce-48b2-8921-648116a0876b", "layer": "buildings"}, "geometry": {"type": "Polygon", "coordinates": [[[286637.6202079822, 78800.0], [286637.99041663366, 78800.35357199871], [286638.34536909586, 78800.0], [286637.6202079822, 78800.0]]]}}, {"type": "Feature", "properties": {"uuid": "7901b861-af5c-4c63-aaa4-4dcf8b841123", "layer": "buildings"}, "geometry": {"type": "Polygon", "coordinates": [[[286644.8339963969, 78800.0], [286640.37474663375, 78805.22633082024], [286646.95154403977, 78810.76600066276], [286656.1786654159, 78800.0], [286644.8339963969, 78800.0]]]}}, {"type": "Feature", "properties": {"uuid": "26421d7c-c759-4a03-92dc-9dc88fed1b52", "layer": "buildings"}, "geometry": {"type": "Polygon", "coordinates": [[[286393.6203254198, 79231.77228601984], [286385.0861739027, 79241.0476475546], [286390.1278535393, 79245.86227722108], [286399.0334131189, 79236.20011677349], [286393.6203254198, 79231.77228601984]]]}}, {"type": "Feature", "properties": {"uuid": "d65faff3-3acf-4011-a622-162d318846e0", "layer": "buildings"}, "geometry": {"type": "Polygon", "coordinates": [[[286414.74141150503, 79207.452224657], [286405.4643638068, 79217.50122472469], [286413.27823416376, 79227.55852139613], [286424.5107910253, 79220.11853213291], [286417.83578107314, 79210.03652178173], [286414.74141150503, 79207.452224657]]]}}, {"type": "Feature", "properties": {"uuid": "eabaa413-a75b-4fed-ae43-0a516a35708c", "layer": "buildings"}, "geometry": {"type": "Polygon", "coordinates": [[[286432.6594426981, 79193.0495203853], [286423.31669543165, 79200.06980205057], [286432.7064507045, 79212.74436954377], [286442.0491867455, 79205.72412108825], [286432.6594426981, 79193.0495203853]]]}}, {"type": "Feature", "properties": {"uuid": "3ef0382c-b8ce-4def-8a9a-96705db79c68", "layer": "buildings"}, "geometry": {"type": "Polygon", "coordinates": [[[286442.19344654353, 78984.51675836564], [286435.49952648254, 78991.10109858023], [286444.0565150176, 79000.38522351458], [286451.13006504416, 78993.79268069583], [286442.19344654353, 78984.51675836564]]]}}, {"type": "Feature", "properties": {"uuid": "3c58752b-eed6-46e9-8f47-6b3aad1e3023", "layer": "buildings"}, "geometry": {"type": "Polygon", "coordinates": [[[286464.8565766224, 78978.72280046719], [286452.8969823799, 78987.6938901555], [286456.0324700086, 78992.17134171125], [286468.3716915117, 78983.19204280555], [286464.8565766224, 78978.72280046719]]]}}, {"type": "Feature", "properties": {"uuid": "5f1f275f-e49b-4f2f-a38a-56bfb392027d", "layer": "buildings"}, "geometry": {"type": "Polygon", "coordinates": [[[286462.15579394554, 78994.31137379276], [286456.9557811425, 78999.72696692191], [286460.06665200915, 79003.06860079567], [286465.6544977966, 78998.02339374452], [286462.15579394554, 78994.31137379276]]]}}, {"type": "Feature", "properties": {"uuid": "0e76a112-0a14-4de0-9fbd-310bb54a0910", "layer": "buildings"}, "geometry": {"type": "Polygon", "coordinates": [[[286483.7340364552, 78955.96567042737], [286472.8886566359, 78963.77626438596], [286475.6363056358, 78967.88336558701], [286486.4816806297, 78960.07278322277], [286483.7340364552, 78955.96567042737]]]}}, {"type": "Feature", "properties": {"uuid": "300bb3d8-e3cb-466e-89d8-e822c8cb469d", "layer": "buildings"}, "geometry": {"type": "Polygon", "coordinates": [[[286489.7483538534, 78970.60796946927], [286483.75622135337, 78974.52558224305], [286488.85545434535, 78981.99078931249], [286494.8393821191, 78977.69458274296], [286489.7483538534, 78970.60796946927]]]}}, {"type": "Feature", "properties": {"uuid": "f5b69901-f3c7-4eac-b7e4-a2def14f72ad", "layer": "buildings"}, "geometry": {"type": "Polygon", "coordinates": [[[286490.5470855535, 79042.55897011963], [286487.19603244273, 79045.66177326627], [286491.8581682362, 79050.48490477446], [286495.2092208118, 79047.38210743034], [286490.5470855535, 79042.55897011963]]]}}, {"type": "Feature", "properties": {"uuid": "3c328bed-1ed8-4568-abab-58bad33b4ab4", "layer": "buildings"}, "geometry": {"type": "Polygon", "coordinates": [[[286498.9546862997, 78939.72706508485], [286493.74638110114, 78944.76406708619], [286499.19246473705, 78950.70667745141], [286504.4007688614, 78945.66968649923], [286498.9546862997, 78939.72706508485]]]}}, {"type": "Feature", "properties": {"uuid": "2f738132-b514-49df-86e0-653e8a10549f", "layer": "buildings"}, "geometry": {"type": "Polygon", "coordinates": [[[286515.42855660414, 79104.13933691164], [286510.1794119154, 79107.28319296162], [286512.15131640557, 79110.64944887269], [286517.3922606575, 79107.12700105197], [286515.42855660414, 79104.13933691164]]]}}, {"type": "Feature", "properties": {"uuid": "cb1b29be-3bce-4134-81e6-9dbf24088c87", "layer": "buildings"}, "geometry": {"type": "Polygon", "coordinates": [[[286521.32040556544, 78937.7276119494], [286506.0668878369, 78952.45172891763], [286509.56558639527, 78956.16380745996], [286524.8191024026, 78941.43971097568], [286521.32040556544, 78937.7276119494]]]}}, {"type": "Feature", "properties": {"uuid": "920aa41f-bbce-48b2-8921-648116a0876b", "layer": "buildings"}, "geometry": {"type": "Polygon", "coordinates": [[[286637.6202079822, 78800.0], [286637.99041663366, 78800.35357199871], [286638.34536909586, 78800.0], [286637.6202079822, 78800.0]]]}}, {"type": "Feature", "properties": {"uuid": "7901b861-af5c-4c63-aaa4-4dcf8b841123", "layer": "buildings"}, "geometry": {"type": "Polygon", "coordinates": [[[286644.8339963969, 78800.0], [286640.37474663375, 78805.22633082024], [286646.95154403977, 78810.76600066276], [286656.1786654159, 78800.0], [286644.8339963969, 78800.0]]]}}, {"type": "Feature", "properties": {"uuid": "e8f66fa3-b84e-4d7c-a6d6-803f1420f36f", "layer": "buildings"}, "geometry": {"type": "Polygon", "coordinates": [[[286719.4028516418, 78800.0], [286721.2228418935, 78802.72074563659], [286725.20451393386, 78800.0], [286719.4028516418, 78800.0]]]}}, {"type": "Feature", "properties": {"uuid": "ef179e22-3f06-4236-8e0c-a0326144f7c4", "layer": "buildings"}, "geometry": {"type": "Polygon", "coordinates": [[[286777.2796202947, 79006.43308532829], [286764.87451171933, 79012.38278457758], [286776.0276375183, 79036.3836163785], [286788.4408785397, 79030.81256983345], [286777.2796202947, 79006.43308532829]]]}}, {"type": "Feature", "properties": {"uuid": "2df387d3-11ad-4d90-8cdc-5fc4fee3c2cf", "layer": "buildings"}, "geometry": {"type": "Polygon", "coordinates": [[[286792.18466674024, 79045.88277828021], [286784.2942716245, 79049.84098953113], [286793.4427892858, 79068.96091414522], [286801.3331615399, 79065.00273019538], [286792.18466674024, 79045.88277828021]]]}}, {"type": "Feature", "properties": {"uuid": "39553def-4838-4a3b-a7c2-31a31a0f4986", "layer": "buildings"}, "geometry": {"type": "Polygon", "coordinates": [[[286795.5535478075, 79078.76345502594], [286791.7900071308, 79080.35984792485], [286795.3865510848, 79088.61517913133], [286799.5297115294, 79087.01059119168], [286795.5535478075, 79078.76345502594]]]}}, {"type": "Feature", "properties": {"uuid": "0d86c6e0-2798-4628-93f2-8579944e8f5e", "layer": "buildings"}, "geometry": {"type": "Polygon", "coordinates": [[[286811.9136391091, 79062.50155638173], [286805.11307064025, 79064.16353697443], [286817.7855673389, 79123.35718916493], [286824.5778859126, 79121.31664667846], [286811.9136391091, 79062.50155638173]]]}}, {"type": "Feature", "properties": {"uuid": "71d39594-ea0c-4acb-bd0d-27fbc2fa334c", "layer": "buildings"}, "geometry": {"type": "Polygon", "coordinates": [[[286850.0, 78854.07750601292], [286847.5602934637, 78848.85591176717], [286843.79657096113, 78850.45233039878], [286848.18515459367, 78860.20611961168], [286850.0, 78859.25169922806], [286850.0, 78854.07750601292]]]}}, {"type": "Feature", "properties": {"uuid": "4410a8fe-61dd-4bd9-944b-13f8e6d4d74b", "layer": "buildings"}, "geometry": {"type": "Polygon", "coordinates": [[[286850.0, 78907.20221446668], [286846.97811768844, 78909.85337451773], [286850.0, 78913.315133083], [286850.0, 78907.20221446668]]]}}, {"type": "Feature", "properties": {"uuid": "159b0e1f-254b-4036-ba2e-289ecfe00d7f", "layer": "buildings"}, "geometry": {"type": "Polygon", "coordinates": [[[286825.19220763637, 79184.93650865916], [286818.79594246775, 79187.72600928153], [286821.9964065631, 79195.23220725518], [286816.4248021438, 79201.03401902819], [286816.6373942976, 79210.87731414824], [286796.26899122726, 79217.37749349882], [286797.49779540405, 79221.51735331412], [286819.7724374422, 79215.35477758932], [286820.89142726595, 79231.99620836854], [286829.23476533813, 79231.43726087574], [286828.59352666483, 79219.33067910097], [286830.943701537, 79187.46366694404], [286825.19220763637, 79184.93650865916]]]}}, {"type": "Feature", "properties": {"uuid": "88e8aecb-1955-44ee-b249-d6f203f65ec9", "layer": "buildings"}, "geometry": {"type": "Polygon", "coordinates": [[[286829.1018411154, 79300.0], [286826.09736279154, 79279.60769704336], [286814.7417458898, 79281.36798727204], [286817.55403787456, 79300.0], [286829.1018411154, 79300.0]]]}}, {"type": "Feature", "properties": {"uuid": "ec2792a9-f88e-4631-a9bf-40f1b50e1709", "layer": "buildings"}, "geometry": {"type": "Polygon", "coordinates": [[[286821.28856651334, 79267.96999222753], [286806.9205653504, 79270.93164267673], [286807.7697388775, 79275.07966173725], [286822.12955270964, 79271.73943201656], [286821.28856651334, 79267.96999222753]]]}}, {"type": "Feature", "properties": {"uuid": "f74c6bdc-8a0a-4d60-bfdc-767f0ea3e073", "layer": "buildings"}, "geometry": {"type": "Polygon", "coordinates": [[[286819.5692048197, 79241.11506847307], [286806.34814801125, 79244.43072269668], [286808.838436264, 79254.22474002893], [286822.0594695263, 79250.90909739683], [286819.5692048197, 79241.11506847307]]]}}, {"type": "Feature", "properties": {"uuid": "5300805a-c3df-4503-9cb3-9925959995a7", "layer": "buildings"}, "geometry": {"type": "Polygon", "coordinates": [[[286830.4273045233, 79251.48590777974], [286821.7043855262, 79252.05305088114], [286823.194801011, 79268.3075836642], [286831.90951742884, 79267.36185998423], [286830.4273045233, 79251.48590777974]]]}}, {"type": "Feature", "properties": {"uuid": "3c6ea3bc-6e66-4343-83ad-1166a516fb87", "layer": "buildings"}, "geometry": {"type": "Polygon", "coordinates": [[[286840.280888548, 79250.51560257506], [286836.11332190543, 79250.98435791337], [286836.72184109694, 79261.5765304167], [286841.27718636056, 79261.47816337261], [286840.280888548, 79250.51560257506]]]}}, {"type": "Feature", "properties": {"uuid": "8c5f6d9d-fbfc-4ccd-8f12-1d5e7e9bfa41", "layer": "buildings"}, "geometry": {"type": "Polygon", "coordinates": [[[286850.0, 79300.0], [286850.0, 79289.05638311607], [286843.42509264126, 79290.59628290971], [286845.52307977923, 79300.0], [286850.0, 79300.0]]]}}, {"type": "Feature", "properties": {"uuid": "2a71a639-950b-4b8c-a6b5-6f90607f5090", "layer": "buildings"}, "geometry": {"type": "Polygon", "coordinates": [[[286847.30911212263, 79224.22923163255], [286841.23527541297, 79224.36038095612], [286841.3987725312, 79231.932114055], [286847.0929862226, 79231.80916141561], [286847.30911212263, 79224.22923163255]]]}}, {"type": "Feature", "properties": {"uuid": "8875542d-cd74-45c8-b706-3f1db016ea20", "layer": "buildings"}, "geometry": {"type": "Polygon", "coordinates": [[[286850.0, 79190.68803771384], [286843.91609279416, 79190.21367491601], [286842.31689635874, 79221.68568076313], [286850.0, 79222.03011452993], [286850.0, 79190.68803771384]]]}}, {"type": "Feature", "properties": {"uuid": "10ff14d7-a55f-44b9-b733-5142a28c0c13", "layer": "buildings"}, "geometry": {"type": "Polygon", "coordinates": [[[286709.5015068037, 79300.0], [286714.3986252801, 79295.27774932963], [286708.1857316197, 79288.97315641586], [286696.7505833446, 79300.0], [286709.5015068037, 79300.0]]]}}, {"type": "Feature", "properties": {"uuid": "b89333ae-9aa7-47a0-b332-f6e79066e7c7", "layer": "buildings"}, "geometry": {"type": "Polygon", "coordinates": [[[286741.4297983197, 79300.0], [286743.2326061989, 79293.89698534284], [286734.8320935889, 79291.80599211494], [286732.8768829765, 79300.0], [286741.4297983197, 79300.0]]]}}, {"type": "Feature", "properties": {"uuid": "2b3fe6c9-2991-4bf2-b4bc-93c2e5ac0f94", "layer": "buildings"}, "geometry": {"type": "Polygon", "coordinates": [[[286725.79828309035, 79277.98715063068], [286711.908175895, 79285.4838473192], [286716.25575449824, 79293.34380795018], [286730.14584627934, 79285.8471334003], [286725.79828309035, 79277.98715063068]]]}}, {"type": "Feature", "properties": {"uuid": "8af6126f-765d-4940-ae2b-71ccc082a381", "layer": "buildings"}, "geometry": {"type": "Polygon", "coordinates": [[[286746.37091508263, 79280.95134343466], [286744.27325270214, 79289.32938639497], [286750.38792325044, 79291.09103519161], [286752.47741317004, 79282.33441495511], [286746.37091508263, 79280.95134343466]]]}}, {"type": "Feature", "properties": {"uuid": "39b071cb-ef40-43df-a412-3ccb9db3f9da", "layer": "buildings"}, "geometry": {"type": "Polygon", "coordinates": [[[286768.0514254464, 79229.72879147646], [286748.10367171245, 79238.11386764672], [286764.1308179971, 79276.77995573997], [286782.52391246706, 79284.33650069998], [286790.05069389637, 79281.14381653382], [286768.0514254464, 79229.72879147646]]]}}, {"type": "Feature", "properties": {"uuid": "69b39c4d-23c8-4be2-9f8a-901ded5fb62a", "layer": "buildings"}, "geometry": {"type": "Polygon", "coordinates": [[[286740.2430975491, 79261.00947108772], [286724.1161717942, 79270.44830332274], [286727.6799720417, 79277.18895720283], [286744.18649441435, 79267.74194331982], [286740.2430975491, 79261.00947108772]]]}}, {"type": "Feature", "properties": {"uuid": "5dde6e93-7b83-4535-a4fa-56f6d9a14743", "layer": "buildings"}, "geometry": {"type": "Polygon", "coordinates": [[[286711.02932368097, 79262.39846010623], [286705.83752338967, 79268.19211591373], [286709.3276891355, 79271.52550915806], [286714.899101656, 79265.72365422788], [286711.02932368097, 79262.39846010623]]]}}, {"type": "Feature", "properties": {"uuid": "f0bc2697-7113-4133-a9aa-a56ad716ddd9", "layer": "buildings"}, "geometry": {"type": "Polygon", "coordinates": [[[286804.07046775194, 79244.47992078195], [286785.1879463638, 79249.43296749576], [286787.25776615855, 79257.34224508962], [286806.1484379288, 79252.76779722422], [286804.07046775194, 79244.47992078195]]]}}]}